{
"type": "FeatureCollection",
"name": "attitudes",
"crs": { "type": "name", "properties": { "name": "urn:ogc:def:crs:EPSG::3857" } },
"features": [
{ "type": "Feature", "properties": { "GZBBAB": "125.000000", "GZBBAC": "215", "GZBBAD": "46", "GZBBGA": "202001" }, "geometry": { "type": "Point", "coordinates": [ 8277238.532633386552334, 4860752.282017087563872 ] } },
{ "type": "Feature", "properties": { "GZBBAB": "70.000000", "GZBBAC": "340", "GZBBAD": "70", "GZBBGA": "202001" }, "geometry": { "type": "Point", "coordinates": [ 8273765.448997654020786, 4864796.245696188881993 ] } },
{ "type": "Feature", "properties": { "GZBBAB": "1.000000", "GZBBAC": "271", "GZBBAD": "65", "GZBBGA": "202001" }, "geometry": { "type": "Point", "coordinates": [ 8268217.983171937987208, 4855353.2255500536412 ] } },
{ "type": "Feature", "properties": { "GZBBAB": "43.000000", "GZBBAC": "313", "GZBBAD": "69", "GZBBGA": "202005" }, "geometry": { "type": "Point", "coordinates": [ 8287142.250489179976285, 4844287.627283086068928 ] } },
{ "type": "Feature", "properties": { "GZBBAB": "53.000000", "GZBBAC": "323", "GZBBAD": "44", "GZBBGA": "202005" }, "geometry": { "type": "Point", "coordinates": [ 8291240.945304982364178, 4848644.546530751511455 ] } },
{ "type": "Feature", "properties": { "GZBBAB": "84.000000", "GZBBAC": "354", "GZBBAD": "23", "GZBBGA": "202001" }, "geometry": { "type": "Point", "coordinates": [ 8275065.075512193143368, 4820377.945720332674682 ] } },
{ "type": "Feature", "properties": { "GZBBAB": "82.000000", "GZBBAC": "172", "GZBBAD": "58", "GZBBGA": "202001" }, "geometry": { "type": "Point", "coordinates": [ 8275897.178726138547063, 4818770.048332993872464 ] } },
{ "type": "Feature", "properties": { "GZBBAB": "65.000000", "GZBBAC": "155", "GZBBAD": "43", "GZBBGA": "202001" }, "geometry": { "type": "Point", "coordinates": [ 8273237.220675364136696, 4834690.556179018691182 ] } },
{ "type": "Feature", "properties": { "GZBBAB": "121.000000", "GZBBAC": "211", "GZBBAD": "30", "GZBBGA": "202001" }, "geometry": { "type": "Point", "coordinates": [ 8261916.92926617898047, 4854158.145915321074426 ] } },
{ "type": "Feature", "properties": { "GZBBAB": "125.000000", "GZBBAC": "215", "GZBBAD": "64", "GZBBGA": "202001" }, "geometry": { "type": "Point", "coordinates": [ 8267292.683403262868524, 4843468.710254639387131 ] } },
{ "type": "Feature", "properties": { "GZBBAB": "70.000000", "GZBBAC": "340", "GZBBAD": "70", "GZBBGA": "202001" }, "geometry": { "type": "Point", "coordinates": [ 8253268.600908945314586, 4820020.488555864430964 ] } },
{ "type": "Feature", "properties": { "GZBBAB": "28.000000", "GZBBAC": "298", "GZBBAD": "25", "GZBBGA": "202001" }, "geometry": { "type": "Point", "coordinates": [ 8255401.819436544552445, 4835651.40388703532517 ] } },
{ "type": "Feature", "properties": { "GZBBAB": "28.000000", "GZBBAC": "298", "GZBBAD": "67", "GZBBGA": "202001" }, "geometry": { "type": "Point", "coordinates": [ 8243110.374537508003414, 4864981.429816957563162 ] } },
{ "type": "Feature", "properties": { "GZBBAB": "35.000000", "GZBBAC": "305", "GZBBAD": "59", "GZBBGA": "202001" }, "geometry": { "type": "Point", "coordinates": [ 8243836.146243372000754, 4860367.213260278105736 ] } },
{ "type": "Feature", "properties": { "GZBBAB": "10.000000", "GZBBAC": "280", "GZBBAD": "40", "GZBBGA": "202001" }, "geometry": { "type": "Point", "coordinates": [ 8242469.915942440740764, 4853665.201098936609924 ] } },
{ "type": "Feature", "properties": { "GZBBAB": "42.000000", "GZBBAC": "132", "GZBBAD": "30", "GZBBGA": "202001" }, "geometry": { "type": "Point", "coordinates": [ 8248111.054408493451774, 4828825.063620211556554 ] } },
{ "type": "Feature", "properties": { "GZBBAB": "31.000000", "GZBBAC": "121", "GZBBAD": "58", "GZBBGA": "202001" }, "geometry": { "type": "Point", "coordinates": [ 8242123.50699336733669, 4825976.065070581622422 ] } },
{ "type": "Feature", "properties": { "GZBBAB": "60.000000", "GZBBAC": "330", "GZBBAD": "46", "GZBBGA": "202001" }, "geometry": { "type": "Point", "coordinates": [ 8240083.900518333539367, 4831693.096495285630226 ] } },
{ "type": "Feature", "properties": { "GZBBAB": "46.000000", "GZBBAC": "316", "GZBBAD": "56", "GZBBGA": "202001" }, "geometry": { "type": "Point", "coordinates": [ 8258026.824449291452765, 4829769.890288815833628 ] } },
{ "type": "Feature", "properties": { "GZBBAB": "116.000000", "GZBBAC": "206", "GZBBAD": "50", "GZBBGA": "202001" }, "geometry": { "type": "Point", "coordinates": [ 8291795.945873169228435, 4819540.073360276408494 ] } },
{ "type": "Feature", "properties": { "GZBBAB": "46.000000", "GZBBAC": "316", "GZBBAD": "58", "GZBBGA": "202001" }, "geometry": { "type": "Point", "coordinates": [ 8238450.671379614621401, 4855752.208328071981668 ] } },
{ "type": "Feature", "properties": { "GZBBAB": "52.000000", "GZBBAC": "322", "GZBBAD": "48", "GZBBGA": "202001" }, "geometry": { "type": "Point", "coordinates": [ 8242965.053283243440092, 4849905.864249058999121 ] } },
{ "type": "Feature", "properties": { "GZBBAB": "27.000000", "GZBBAC": "297", "GZBBAD": "36", "GZBBGA": "202005" }, "geometry": { "type": "Point", "coordinates": [ 8244064.729549608193338, 4822261.367550366558135 ] } },
{ "type": "Feature", "properties": { "GZBBAB": "48.000000", "GZBBAC": "318", "GZBBAD": "38", "GZBBGA": "202001" }, "geometry": { "type": "Point", "coordinates": [ 8250112.248184106312692, 4825207.901481355540454 ] } },
{ "type": "Feature", "properties": { "GZBBAB": "33.000000", "GZBBAC": "303", "GZBBAD": "43", "GZBBGA": "202005" }, "geometry": { "type": "Point", "coordinates": [ 8245456.652300581336021, 4830912.401252651587129 ] } },
{ "type": "Feature", "properties": { "GZBBAB": "23.000000", "GZBBAC": "113", "GZBBAD": "29", "GZBBGA": "202001" }, "geometry": { "type": "Point", "coordinates": [ 8252065.650098666548729, 4839152.396875537931919 ] } },
{ "type": "Feature", "properties": { "GZBBAB": "42.000000", "GZBBAC": "312", "GZBBAD": "70", "GZBBGA": "202005" }, "geometry": { "type": "Point", "coordinates": [ 8251224.00298660621047, 4843970.650433712638915 ] } },
{ "type": "Feature", "properties": { "GZBBAB": "56.000000", "GZBBAC": "326", "GZBBAD": "58", "GZBBGA": "202001" }, "geometry": { "type": "Point", "coordinates": [ 8246065.991333980113268, 4847390.592140140011907 ] } },
{ "type": "Feature", "properties": { "GZBBAB": "34.000000", "GZBBAC": "304", "GZBBAD": "70", "GZBBGA": "202001" }, "geometry": { "type": "Point", "coordinates": [ 8247607.835304523818195, 4861527.669173113070428 ] } },
{ "type": "Feature", "properties": { "GZBBAB": "31.000000", "GZBBAC": "301", "GZBBAD": "70", "GZBBGA": "202001" }, "geometry": { "type": "Point", "coordinates": [ 8251974.699283644556999, 4864476.110118720680475 ] } },
{ "type": "Feature", "properties": { "GZBBAB": "36.000000", "GZBBAC": "306", "GZBBAD": "57", "GZBBGA": "202001" }, "geometry": { "type": "Point", "coordinates": [ 8257140.345277124084532, 4818498.832343556918204 ] } },
{ "type": "Feature", "properties": { "GZBBAB": "52.000000", "GZBBAC": "322", "GZBBAD": "56", "GZBBGA": "202001" }, "geometry": { "type": "Point", "coordinates": [ 8261569.542314779944718, 4827964.053692639805377 ] } },
{ "type": "Feature", "properties": { "GZBBAB": "50.000000", "GZBBAC": "140", "GZBBAD": "40", "GZBBGA": "202001" }, "geometry": { "type": "Point", "coordinates": [ 8261253.649404699914157, 4828984.981263601221144 ] } },
{ "type": "Feature", "properties": { "GZBBAB": "32.000000", "GZBBAC": "122", "GZBBAD": "59", "GZBBGA": "202001" }, "geometry": { "type": "Point", "coordinates": [ 8260724.47345101647079, 4849880.39374023117125 ] } },
{ "type": "Feature", "properties": { "GZBBAB": "30.000000", "GZBBAC": "300", "GZBBAD": "60", "GZBBGA": "202001" }, "geometry": { "type": "Point", "coordinates": [ 8255801.058772606775165, 4855703.147650024853647 ] } },
{ "type": "Feature", "properties": { "GZBBAB": "26.000000", "GZBBAC": "296", "GZBBAD": "54", "GZBBGA": "202001" }, "geometry": { "type": "Point", "coordinates": [ 8261087.899568213149905, 4864668.678187131881714 ] } },
{ "type": "Feature", "properties": { "GZBBAB": "62.000000", "GZBBAC": "152", "GZBBAD": "68", "GZBBGA": "202001" }, "geometry": { "type": "Point", "coordinates": [ 8268235.767009359784424, 4859061.112576152198017 ] } },
{ "type": "Feature", "properties": { "GZBBAB": "42.000000", "GZBBAC": "312", "GZBBAD": "53", "GZBBGA": "202001" }, "geometry": { "type": "Point", "coordinates": [ 8264046.215728662908077, 4822941.392860515974462 ] } },
{ "type": "Feature", "properties": { "GZBBAB": "99.000000", "GZBBAC": "9", "GZBBAD": "72", "GZBBGA": "202001" }, "geometry": { "type": "Point", "coordinates": [ 8267236.138483172282577, 4821334.595221043564379 ] } },
{ "type": "Feature", "properties": { "GZBBAB": "125.000000", "GZBBAC": "35", "GZBBAD": "72", "GZBBGA": "202001" }, "geometry": { "type": "Point", "coordinates": [ 8277996.410595200024545, 4861944.024797635152936 ] } },
{ "type": "Feature", "properties": { "GZBBAB": "69.000000", "GZBBAC": "339", "GZBBAD": "70", "GZBBGA": "202001" }, "geometry": { "type": "Point", "coordinates": [ 8276365.080813702195883, 4857237.114479037001729 ] } },
{ "type": "Feature", "properties": { "GZBBAB": "35.000000", "GZBBAC": "305", "GZBBAD": "32", "GZBBGA": "202001" }, "geometry": { "type": "Point", "coordinates": [ 8281278.670330363325775, 4845544.979975188151002 ] } },
{ "type": "Feature", "properties": { "GZBBAB": "22.000000", "GZBBAC": "292", "GZBBAD": "21", "GZBBGA": "202001" }, "geometry": { "type": "Point", "coordinates": [ 8283361.96306805498898, 4848548.136856083758175 ] } },
{ "type": "Feature", "properties": { "GZBBAB": "77.000000", "GZBBAC": "167", "GZBBAD": "60", "GZBBGA": "202001" }, "geometry": { "type": "Point", "coordinates": [ 8279131.293180417269468, 4838763.665394539013505 ] } },
{ "type": "Feature", "properties": { "GZBBAB": "94.000000", "GZBBAC": "4", "GZBBAD": "30", "GZBBGA": "202001" }, "geometry": { "type": "Point", "coordinates": [ 8280600.975693423300982, 4836607.5939338542521 ] } },
{ "type": "Feature", "properties": { "GZBBAB": "58.000000", "GZBBAC": "328", "GZBBAD": "37", "GZBBGA": "202001" }, "geometry": { "type": "Point", "coordinates": [ 8273720.891162469051778, 4834186.865233629010618 ] } },
{ "type": "Feature", "properties": { "GZBBAB": "85.000000", "GZBBAC": "355", "GZBBAD": "66", "GZBBGA": "202001" }, "geometry": { "type": "Point", "coordinates": [ 8278399.29223838634789, 4832743.486392081715167 ] } },
{ "type": "Feature", "properties": { "GZBBAB": "69.000000", "GZBBAC": "339", "GZBBAD": "78", "GZBBGA": "202001" }, "geometry": { "type": "Point", "coordinates": [ 8276186.529720547609031, 4824232.899676737375557 ] } },
{ "type": "Feature", "properties": { "GZBBAB": "68.000000", "GZBBAC": "338", "GZBBAD": "61", "GZBBGA": "202001" }, "geometry": { "type": "Point", "coordinates": [ 8274842.770830896683037, 4825526.618289417587221 ] } },
{ "type": "Feature", "properties": { "GZBBAB": "108.000000", "GZBBAC": "198", "GZBBAD": "40", "GZBBGA": "202001" }, "geometry": { "type": "Point", "coordinates": [ 8292025.31909332703799, 4824535.644111013039947 ] } },
{ "type": "Feature", "properties": { "GZBBAB": "117.000000", "GZBBAC": "27", "GZBBAD": "60", "GZBBGA": "202001" }, "geometry": { "type": "Point", "coordinates": [ 8291354.434123144485056, 4827532.245253416709602 ] } },
{ "type": "Feature", "properties": { "GZBBAB": "82.000000", "GZBBAC": "172", "GZBBAD": "40", "GZBBGA": "202001" }, "geometry": { "type": "Point", "coordinates": [ 8291079.663167567923665, 4832409.282004883512855 ] } },
{ "type": "Feature", "properties": { "GZBBAB": "120.000000", "GZBBAC": "210", "GZBBAD": "55", "GZBBGA": "202001" }, "geometry": { "type": "Point", "coordinates": [ 8284537.493799704127014, 4855305.840214129537344 ] } },
{ "type": "Feature", "properties": { "GZBBAB": "77.000000", "GZBBAC": "347", "GZBBAD": "84", "GZBBGA": "202001" }, "geometry": { "type": "Point", "coordinates": [ 8286828.67614221945405, 4859741.958540856838226 ] } },
{ "type": "Feature", "properties": { "GZBBAB": "76.000000", "GZBBAC": "166", "GZBBAD": "60", "GZBBGA": "202001" }, "geometry": { "type": "Point", "coordinates": [ 8287787.135145351290703, 4862024.012905523180962 ] } },
{ "type": "Feature", "properties": { "GZBBAB": "48.000000", "GZBBAC": "318", "GZBBAD": "66", "GZBBGA": "202001" }, "geometry": { "type": "Point", "coordinates": [ 8286918.768041289411485, 4864564.156987211667001 ] } },
{ "type": "Feature", "properties": { "GZBBAB": "88.000000", "GZBBAC": "178", "GZBBAD": "48", "GZBBGA": "202001" }, "geometry": { "type": "Point", "coordinates": [ 8292819.123891163617373, 4835461.045938489958644 ] } },
{ "type": "Feature", "properties": { "GZBBAB": "98.000000", "GZBBAC": "188", "GZBBAD": "57", "GZBBGA": "202001" }, "geometry": { "type": "Point", "coordinates": [ 8273856.333908550441265, 4837851.265157924965024 ] } },
{ "type": "Feature", "properties": { "GZBBAB": "1.000000", "GZBBAC": "271", "GZBBAD": "25", "GZBBGA": "202001" }, "geometry": { "type": "Point", "coordinates": [ 8274772.799535579048097, 4842606.027753747999668 ] } },
{ "type": "Feature", "properties": { "GZBBAB": "78.000000", "GZBBAC": "348", "GZBBAD": "68", "GZBBGA": "202001" }, "geometry": { "type": "Point", "coordinates": [ 8268355.173024291172624, 4853103.960613559000194 ] } },
{ "type": "Feature", "properties": { "GZBBAB": "168.000000", "GZBBAC": "78", "GZBBAD": "57", "GZBBGA": "202001" }, "geometry": { "type": "Point", "coordinates": [ 8332396.881764742545784, 4860132.757430083118379 ] } },
{ "type": "Feature", "properties": { "GZBBAB": "122.000000", "GZBBAC": "32", "GZBBAD": "65", "GZBBGA": "202001" }, "geometry": { "type": "Point", "coordinates": [ 8336884.24904646910727, 4853273.511178156360984 ] } },
{ "type": "Feature", "properties": { "GZBBAB": "112.000000", "GZBBAC": "22", "GZBBAD": "65", "GZBBGA": "202001" }, "geometry": { "type": "Point", "coordinates": [ 8332642.255314896814525, 4851827.503932061605155 ] } },
{ "type": "Feature", "properties": { "GZBBAB": "82.000000", "GZBBAC": "352", "GZBBAD": "30", "GZBBGA": "202001" }, "geometry": { "type": "Point", "coordinates": [ 8328724.659247446805239, 4851253.352569319307804 ] } },
{ "type": "Feature", "properties": { "GZBBAB": "94.000000", "GZBBAC": "184", "GZBBAD": "40", "GZBBGA": "202001" }, "geometry": { "type": "Point", "coordinates": [ 8335514.936690562404692, 4843166.755283493548632 ] } },
{ "type": "Feature", "properties": { "GZBBAB": "82.000000", "GZBBAC": "172", "GZBBAD": "35", "GZBBGA": "202001" }, "geometry": { "type": "Point", "coordinates": [ 8332479.887566840276122, 4837452.756612667813897 ] } },
{ "type": "Feature", "properties": { "GZBBAB": "106.000000", "GZBBAC": "196", "GZBBAD": "78", "GZBBGA": "202001" }, "geometry": { "type": "Point", "coordinates": [ 8329101.640709651634097, 4835938.221448586322367 ] } },
{ "type": "Feature", "properties": { "GZBBAB": "117.000000", "GZBBAC": "27", "GZBBAD": "53", "GZBBGA": "202001" }, "geometry": { "type": "Point", "coordinates": [ 8321535.95723597612232, 4845446.92614041082561 ] } },
{ "type": "Feature", "properties": { "GZBBAB": "90.000000", "GZBBAC": "0", "GZBBAD": "14", "GZBBGA": "202001" }, "geometry": { "type": "Point", "coordinates": [ 8298106.941525147296488, 4865716.851860679686069 ] } },
{ "type": "Feature", "properties": { "GZBBAB": "66.000000", "GZBBAC": "156", "GZBBAD": "64", "GZBBGA": "202005" }, "geometry": { "type": "Point", "coordinates": [ 8304734.105993540026248, 4854994.717627903446555 ] } },
{ "type": "Feature", "properties": { "GZBBAB": "112.000000", "GZBBAC": "202", "GZBBAD": "64", "GZBBGA": "202005" }, "geometry": { "type": "Point", "coordinates": [ 8308141.038280210457742, 4859390.658449100330472 ] } },
{ "type": "Feature", "properties": { "GZBBAB": "85.000000", "GZBBAC": "175", "GZBBAD": "59", "GZBBGA": "202005" }, "geometry": { "type": "Point", "coordinates": [ 8307933.229413704015315, 4864855.427686687558889 ] } },
{ "type": "Feature", "properties": { "GZBBAB": "98.000000", "GZBBAC": "188", "GZBBAD": "70", "GZBBGA": "202001" }, "geometry": { "type": "Point", "coordinates": [ 8342666.146459182724357, 4854590.481078925542533 ] } },
{ "type": "Feature", "properties": { "GZBBAB": "80.000000", "GZBBAC": "350", "GZBBAD": "41", "GZBBGA": "202001" }, "geometry": { "type": "Point", "coordinates": [ 8347955.817359077744186, 4852685.001182797364891 ] } },
{ "type": "Feature", "properties": { "GZBBAB": "135.000000", "GZBBAC": "225", "GZBBAD": "33", "GZBBGA": "202001" }, "geometry": { "type": "Point", "coordinates": [ 8340600.99787634704262, 4848318.926723279058933 ] } },
{ "type": "Feature", "properties": { "GZBBAB": "126.000000", "GZBBAC": "216", "GZBBAD": "30", "GZBBGA": "202001" }, "geometry": { "type": "Point", "coordinates": [ 8342526.527600761502981, 4835022.181378368288279 ] } },
{ "type": "Feature", "properties": { "GZBBAB": "99.000000", "GZBBAC": "189", "GZBBAD": "42", "GZBBGA": "202001" }, "geometry": { "type": "Point", "coordinates": [ 8344823.082155703566968, 4819068.94825397990644 ] } },
{ "type": "Feature", "properties": { "GZBBAB": "149.000000", "GZBBAC": "59", "GZBBAD": "20", "GZBBGA": "202001" }, "geometry": { "type": "Point", "coordinates": [ 8312423.918402364477515, 4821216.022880537435412 ] } },
{ "type": "Feature", "properties": { "GZBBAB": "136.000000", "GZBBAC": "46", "GZBBAD": "64", "GZBBGA": "202001" }, "geometry": { "type": "Point", "coordinates": [ 8316107.463290964253247, 4830274.43763236887753 ] } },
{ "type": "Feature", "properties": { "GZBBAB": "118.000000", "GZBBAC": "208", "GZBBAD": "46", "GZBBGA": "202001" }, "geometry": { "type": "Point", "coordinates": [ 8305136.54839872289449, 4838819.759303630329669 ] } },
{ "type": "Feature", "properties": { "GZBBAB": "19.000000", "GZBBAC": "109", "GZBBAD": "69", "GZBBGA": "202005" }, "geometry": { "type": "Point", "coordinates": [ 8317250.098505269736052, 4856792.995383023284376 ] } },
{ "type": "Feature", "properties": { "GZBBAB": "21.000000", "GZBBAC": "111", "GZBBAD": "65", "GZBBGA": "202005" }, "geometry": { "type": "Point", "coordinates": [ 8328635.145045757293701, 4856973.154160792939365 ] } },
{ "type": "Feature", "properties": { "GZBBAB": "9.000000", "GZBBAC": "279", "GZBBAD": "65", "GZBBGA": "202005" }, "geometry": { "type": "Point", "coordinates": [ 8294671.085969342850149, 4845934.960398570634425 ] } },
{ "type": "Feature", "properties": { "GZBBAB": "95.000000", "GZBBAC": "5", "GZBBAD": "66", "GZBBGA": "202001" }, "geometry": { "type": "Point", "coordinates": [ 8309130.716919774189591, 4830923.457991505041718 ] } },
{ "type": "Feature", "properties": { "GZBBAB": "121.000000", "GZBBAC": "211", "GZBBAD": "60", "GZBBGA": "202005" }, "geometry": { "type": "Point", "coordinates": [ 8298302.000249429605901, 4864291.685398333705962 ] } },
{ "type": "Feature", "properties": { "GZBBAB": "42.000000", "GZBBAC": "312", "GZBBAD": "32", "GZBBGA": "202005" }, "geometry": { "type": "Point", "coordinates": [ 8299402.41870170738548, 4862772.034099179320037 ] } },
{ "type": "Feature", "properties": { "GZBBAB": "58.000000", "GZBBAC": "148", "GZBBAD": "35", "GZBBGA": "202005" }, "geometry": { "type": "Point", "coordinates": [ 8300642.277323385700583, 4861261.716505291871727 ] } },
{ "type": "Feature", "properties": { "GZBBAB": "153.000000", "GZBBAC": "63", "GZBBAD": "34", "GZBBGA": "202005" }, "geometry": { "type": "Point", "coordinates": [ 8299645.569593029096723, 4856788.570460733957589 ] } },
{ "type": "Feature", "properties": { "GZBBAB": "77.000000", "GZBBAC": "167", "GZBBAD": "60", "GZBBGA": "202005" }, "geometry": { "type": "Point", "coordinates": [ 8298635.434651605784893, 4854435.329018962569535 ] } },
{ "type": "Feature", "properties": { "GZBBAB": "57.000000", "GZBBAC": "147", "GZBBAD": "66", "GZBBGA": "202005" }, "geometry": { "type": "Point", "coordinates": [ 8299591.108228287659585, 4851558.464674552902579 ] } },
{ "type": "Feature", "properties": { "GZBBAB": "137.000000", "GZBBAC": "227", "GZBBAD": "40", "GZBBGA": "202005" }, "geometry": { "type": "Point", "coordinates": [ 8303200.016140865162015, 4848258.436406707391143 ] } },
{ "type": "Feature", "properties": { "GZBBAB": "73.000000", "GZBBAC": "163", "GZBBAD": "71", "GZBBGA": "202001" }, "geometry": { "type": "Point", "coordinates": [ 8297349.506468358449638, 4842986.856212713755667 ] } },
{ "type": "Feature", "properties": { "GZBBAB": "102.000000", "GZBBAC": "192", "GZBBAD": "66", "GZBBGA": "202001" }, "geometry": { "type": "Point", "coordinates": [ 8309159.205008437857032, 4828342.547048120759428 ] } },
{ "type": "Feature", "properties": { "GZBBAB": "107.000000", "GZBBAC": "197", "GZBBAD": "52", "GZBBGA": "202001" }, "geometry": { "type": "Point", "coordinates": [ 8307166.567359159700572, 4832373.08252870477736 ] } },
{ "type": "Feature", "properties": { "GZBBAB": "99.000000", "GZBBAC": "189", "GZBBAD": "56", "GZBBGA": "202001" }, "geometry": { "type": "Point", "coordinates": [ 8305427.033563886769116, 4842254.756662593223155 ] } },
{ "type": "Feature", "properties": { "GZBBAB": "141.000000", "GZBBAC": "51", "GZBBAD": "37", "GZBBGA": "202001" }, "geometry": { "type": "Point", "coordinates": [ 8316911.878053747117519, 4832198.240893009118736 ] } },
{ "type": "Feature", "properties": { "GZBBAB": "120.000000", "GZBBAC": "210", "GZBBAD": "50", "GZBBGA": "202001" }, "geometry": { "type": "Point", "coordinates": [ 8315261.776193171739578, 4827055.35421672090888 ] } },
{ "type": "Feature", "properties": { "GZBBAB": "136.000000", "GZBBAC": "226", "GZBBAD": "58", "GZBBGA": "202001" }, "geometry": { "type": "Point", "coordinates": [ 8311738.31729925237596, 4824408.503867886029184 ] } },
{ "type": "Feature", "properties": { "GZBBAB": "55.000000", "GZBBAC": "145", "GZBBAD": "48", "GZBBGA": "202001" }, "geometry": { "type": "Point", "coordinates": [ 8334924.114955000579357, 4839794.59893312305212 ] } },
{ "type": "Feature", "properties": { "GZBBAB": "112.000000", "GZBBAC": "22", "GZBBAD": "42", "GZBBGA": "202001" }, "geometry": { "type": "Point", "coordinates": [ 8335249.496804722584784, 4845884.737235669977963 ] } },
{ "type": "Feature", "properties": { "GZBBAB": "103.000000", "GZBBAC": "13", "GZBBAD": "40", "GZBBGA": "202001" }, "geometry": { "type": "Point", "coordinates": [ 8336835.325044300407171, 4857169.06813894957304 ] } },
{ "type": "Feature", "properties": { "GZBBAB": "141.000000", "GZBBAC": "231", "GZBBAD": "25", "GZBBGA": "202001" }, "geometry": { "type": "Point", "coordinates": [ 8339074.273696069605649, 4858583.683978648856282 ] } },
{ "type": "Feature", "properties": { "GZBBAB": "162.000000", "GZBBAC": "72", "GZBBAD": "43", "GZBBGA": "202001" }, "geometry": { "type": "Point", "coordinates": [ 8341648.975889598019421, 4859686.870324730873108 ] } },
{ "type": "Feature", "properties": { "GZBBAB": "156.000000", "GZBBAC": "66", "GZBBAD": "20", "GZBBGA": "202001" }, "geometry": { "type": "Point", "coordinates": [ 8344138.343419495038688, 4860990.681136377155781 ] } },
{ "type": "Feature", "properties": { "GZBBAB": "134.000000", "GZBBAC": "44", "GZBBAD": "64", "GZBBGA": "202001" }, "geometry": { "type": "Point", "coordinates": [ 8335032.598290869034827, 4863340.063760992139578 ] } },
{ "type": "Feature", "properties": { "GZBBAB": "38.000000", "GZBBAC": "128", "GZBBAD": "65", "GZBBGA": "202005" }, "geometry": { "type": "Point", "coordinates": [ 8332116.873190869577229, 4857010.287108566612005 ] } },
{ "type": "Feature", "properties": { "GZBBAB": "22.000000", "GZBBAC": "292", "GZBBAD": "73", "GZBBGA": "202005" }, "geometry": { "type": "Point", "coordinates": [ 8330741.947896562516689, 4857217.969583746045828 ] } },
{ "type": "Feature", "properties": { "GZBBAB": "34.000000", "GZBBAC": "124", "GZBBAD": "71", "GZBBGA": "202005" }, "geometry": { "type": "Point", "coordinates": [ 8323722.462432349100709, 4854916.264764474704862 ] } },
{ "type": "Feature", "properties": { "GZBBAB": "109.000000", "GZBBAC": "19", "GZBBAD": "65", "GZBBGA": "202001" }, "geometry": { "type": "Point", "coordinates": [ 8342989.716280861757696, 4851762.877312131226063 ] } },
{ "type": "Feature", "properties": { "GZBBAB": "103.000000", "GZBBAC": "13", "GZBBAD": "25", "GZBBGA": "202001" }, "geometry": { "type": "Point", "coordinates": [ 8345995.928434659726918, 4851004.47774809319526 ] } },
{ "type": "Feature", "properties": { "GZBBAB": "120.000000", "GZBBAC": "30", "GZBBAD": "45", "GZBBGA": "202001" }, "geometry": { "type": "Point", "coordinates": [ 8344697.050706573762, 4849245.484816296957433 ] } },
{ "type": "Feature", "properties": { "GZBBAB": "128.000000", "GZBBAC": "38", "GZBBAD": "35", "GZBBGA": "202001" }, "geometry": { "type": "Point", "coordinates": [ 8342196.080786619335413, 4849259.930206402204931 ] } },
{ "type": "Feature", "properties": { "GZBBAB": "125.000000", "GZBBAC": "215", "GZBBAD": "46", "GZBBGA": "202001" }, "geometry": { "type": "Point", "coordinates": [ 8346223.057112572714686, 4841115.844672782346606 ] } },
{ "type": "Feature", "properties": { "GZBBAB": "106.000000", "GZBBAC": "16", "GZBBAD": "50", "GZBBGA": "202001" }, "geometry": { "type": "Point", "coordinates": [ 8341756.634903660975397, 4837557.422271717339754 ] } },
{ "type": "Feature", "properties": { "GZBBAB": "128.000000", "GZBBAC": "218", "GZBBAD": "30", "GZBBGA": "202001" }, "geometry": { "type": "Point", "coordinates": [ 8347211.517879602499306, 4831924.281306425109506 ] } },
{ "type": "Feature", "properties": { "GZBBAB": "139.000000", "GZBBAC": "229", "GZBBAD": "40", "GZBBGA": "202001" }, "geometry": { "type": "Point", "coordinates": [ 8338436.108111626468599, 4830184.899499493651092 ] } },
{ "type": "Feature", "properties": { "GZBBAB": "95.000000", "GZBBAC": "185", "GZBBAD": "18", "GZBBGA": "202001" }, "geometry": { "type": "Point", "coordinates": [ 8339813.797460215166211, 4826271.136566270142794 ] } },
{ "type": "Feature", "properties": { "GZBBAB": "51.000000", "GZBBAC": "321", "GZBBAD": "20", "GZBBGA": "202001" }, "geometry": { "type": "Point", "coordinates": [ 8340674.633913102559745, 4823379.392748914659023 ] } },
{ "type": "Feature", "properties": { "GZBBAB": "86.000000", "GZBBAC": "356", "GZBBAD": "40", "GZBBGA": "202001" }, "geometry": { "type": "Point", "coordinates": [ 8342388.175953041762114, 4821353.291390454396605 ] } },
{ "type": "Feature", "properties": { "GZBBAB": "89.000000", "GZBBAC": "359", "GZBBAD": "30", "GZBBGA": "202001" }, "geometry": { "type": "Point", "coordinates": [ 8328333.832349751144648, 4823883.401037149131298 ] } },
{ "type": "Feature", "properties": { "GZBBAB": "130.000000", "GZBBAC": "40", "GZBBAD": "50", "GZBBGA": "202001" }, "geometry": { "type": "Point", "coordinates": [ 8329266.328045576810837, 4827049.836516636423767 ] } },
{ "type": "Feature", "properties": { "GZBBAB": "118.000000", "GZBBAC": "208", "GZBBAD": "49", "GZBBGA": "202001" }, "geometry": { "type": "Point", "coordinates": [ 8323640.132630829699337, 4849331.121542241424322 ] } },
{ "type": "Feature", "properties": { "GZBBAB": "88.000000", "GZBBAC": "178", "GZBBAD": "54", "GZBBGA": "202005" }, "geometry": { "type": "Point", "coordinates": [ 8311292.387141698040068, 4846885.432523424737155 ] } },
{ "type": "Feature", "properties": { "GZBBAB": "167.000000", "GZBBAC": "77", "GZBBAD": "68", "GZBBGA": "202005" }, "geometry": { "type": "Point", "coordinates": [ 8294471.847946250811219, 4859326.520177356898785 ] } },
{ "type": "Feature", "properties": { "GZBBAB": "155.000000", "GZBBAC": "245", "GZBBAD": "67", "GZBBGA": "202005" }, "geometry": { "type": "Point", "coordinates": [ 8320881.204077194444835, 4857351.795307610183954 ] } },
{ "type": "Feature", "properties": { "GZBBAB": "133.000000", "GZBBAC": "223", "GZBBAD": "53", "GZBBGA": "202005" }, "geometry": { "type": "Point", "coordinates": [ 8313525.97310592699796, 4854250.643779635429382 ] } },
{ "type": "Feature", "properties": { "GZBBAB": "133.000000", "GZBBAC": "223", "GZBBAD": "57", "GZBBGA": "202005" }, "geometry": { "type": "Point", "coordinates": [ 8313595.18042500782758, 4850934.531769534572959 ] } },
{ "type": "Feature", "properties": { "GZBBAB": "112.000000", "GZBBAC": "22", "GZBBAD": "80", "GZBBGA": "202005" }, "geometry": { "type": "Point", "coordinates": [ 8335057.276651337742805, 4847344.509421925991774 ] } },
{ "type": "Feature", "properties": { "GZBBAB": "111.000000", "GZBBAC": "21", "GZBBAD": "35", "GZBBGA": "202001" }, "geometry": { "type": "Point", "coordinates": [ 8341578.936618032865226, 4842384.882172132842243 ] } },
{ "type": "Feature", "properties": { "GZBBAB": "94.000000", "GZBBAC": "4", "GZBBAD": "31", "GZBBGA": "202001" }, "geometry": { "type": "Point", "coordinates": [ 8326964.6531419204548, 4821467.586796501651406 ] } },
{ "type": "Feature", "properties": { "GZBBAB": "105.000000", "GZBBAC": "195", "GZBBAD": "22", "GZBBGA": "202001" }, "geometry": { "type": "Point", "coordinates": [ 8306683.149436356499791, 4824846.060919037088752 ] } },
{ "type": "Feature", "properties": { "GZBBAB": "74.000000", "GZBBAC": "164", "GZBBAD": "80", "GZBBGA": "202005" }, "geometry": { "type": "Point", "coordinates": [ 8227852.476849920116365, 4726725.756900309585035 ] } },
{ "type": "Feature", "properties": { "GZBBAB": "94.000000", "GZBBAC": "184", "GZBBAD": "62", "GZBBGA": "202005" }, "geometry": { "type": "Point", "coordinates": [ 8223455.622118636034429, 4724030.066624827682972 ] } },
{ "type": "Feature", "properties": { "GZBBAB": "94.000000", "GZBBAC": "184", "GZBBAD": "63", "GZBBGA": "202001" }, "geometry": { "type": "Point", "coordinates": [ 8222486.182603865861893, 4767312.746959149837494 ] } },
{ "type": "Feature", "properties": { "GZBBAB": "129.000000", "GZBBAC": "39", "GZBBAD": "60", "GZBBGA": "202005" }, "geometry": { "type": "Point", "coordinates": [ 8232162.195373939350247, 4752027.645857948809862 ] } },
{ "type": "Feature", "properties": { "GZBBAB": "74.000000", "GZBBAC": "344", "GZBBAD": "50", "GZBBGA": "202005" }, "geometry": { "type": "Point", "coordinates": [ 8220357.289932767860591, 4754034.372346980497241 ] } },
{ "type": "Feature", "properties": { "GZBBAB": "101.000000", "GZBBAC": "11", "GZBBAD": "48", "GZBBGA": "202005" }, "geometry": { "type": "Point", "coordinates": [ 8204627.605953094549477, 4755686.815332332625985 ] } },
{ "type": "Feature", "properties": { "GZBBAB": "68.000000", "GZBBAC": "338", "GZBBAD": "56", "GZBBGA": "202005" }, "geometry": { "type": "Point", "coordinates": [ 8217633.956792453303933, 4753351.919791384600103 ] } },
{ "type": "Feature", "properties": { "GZBBAB": "113.000000", "GZBBAC": "203", "GZBBAD": "63", "GZBBGA": "202005" }, "geometry": { "type": "Point", "coordinates": [ 8213954.617393436841667, 4759276.447467495687306 ] } },
{ "type": "Feature", "properties": { "GZBBAB": "87.000000", "GZBBAC": "357", "GZBBAD": "58", "GZBBGA": "202005" }, "geometry": { "type": "Point", "coordinates": [ 8231449.741942449472845, 4747462.966479341499507 ] } },
{ "type": "Feature", "properties": { "GZBBAB": "82.000000", "GZBBAC": "172", "GZBBAD": "46", "GZBBGA": "202001" }, "geometry": { "type": "Point", "coordinates": [ 8214738.315098396502435, 4763763.09121576603502 ] } },
{ "type": "Feature", "properties": { "GZBBAB": "81.000000", "GZBBAC": "351", "GZBBAD": "23", "GZBBGA": "202001" }, "geometry": { "type": "Point", "coordinates": [ 8322463.396084100008011, 4790824.608921614475548 ] } },
{ "type": "Feature", "properties": { "GZBBAB": "142.000000", "GZBBAC": "232", "GZBBAD": "41", "GZBBGA": "202001" }, "geometry": { "type": "Point", "coordinates": [ 8332881.574151346459985, 4794491.918824773281813 ] } },
{ "type": "Feature", "properties": { "GZBBAB": "112.000000", "GZBBAC": "202", "GZBBAD": "76", "GZBBGA": "202001" }, "geometry": { "type": "Point", "coordinates": [ 8334738.649122034199536, 4798328.553258127532899 ] } },
{ "type": "Feature", "properties": { "GZBBAB": "112.000000", "GZBBAC": "202", "GZBBAD": "43", "GZBBGA": "202001" }, "geometry": { "type": "Point", "coordinates": [ 8334242.359867363236845, 4804525.323206064291298 ] } },
{ "type": "Feature", "properties": { "GZBBAB": "131.000000", "GZBBAC": "221", "GZBBAD": "41", "GZBBGA": "202001" }, "geometry": { "type": "Point", "coordinates": [ 8338419.15918736718595, 4808619.064363279379904 ] } },
{ "type": "Feature", "properties": { "GZBBAB": "96.000000", "GZBBAC": "186", "GZBBAD": "54", "GZBBGA": "202001" }, "geometry": { "type": "Point", "coordinates": [ 8343474.478544562123716, 4805692.655259974300861 ] } },
{ "type": "Feature", "properties": { "GZBBAB": "51.000000", "GZBBAC": "141", "GZBBAD": "27", "GZBBGA": "202001" }, "geometry": { "type": "Point", "coordinates": [ 8329224.687153181061149, 4816897.691125838086009 ] } },
{ "type": "Feature", "properties": { "GZBBAB": "106.000000", "GZBBAC": "196", "GZBBAD": "48", "GZBBGA": "202001" }, "geometry": { "type": "Point", "coordinates": [ 8315389.853309252299368, 4809560.57635201048106 ] } },
{ "type": "Feature", "properties": { "GZBBAB": "117.000000", "GZBBAC": "207", "GZBBAD": "60", "GZBBGA": "202001" }, "geometry": { "type": "Point", "coordinates": [ 8313158.225783612579107, 4803492.956729075871408 ] } },
{ "type": "Feature", "properties": { "GZBBAB": "113.000000", "GZBBAC": "23", "GZBBAD": "60", "GZBBGA": "202001" }, "geometry": { "type": "Point", "coordinates": [ 8312730.851906029507518, 4801976.404986595734954 ] } },
{ "type": "Feature", "properties": { "GZBBAB": "113.000000", "GZBBAC": "23", "GZBBAD": "40", "GZBBGA": "202001" }, "geometry": { "type": "Point", "coordinates": [ 8313604.236731055192649, 4799396.148124274797738 ] } },
{ "type": "Feature", "properties": { "GZBBAB": "112.000000", "GZBBAC": "202", "GZBBAD": "40", "GZBBGA": "202001" }, "geometry": { "type": "Point", "coordinates": [ 8314068.122055296786129, 4799716.948332147672772 ] } },
{ "type": "Feature", "properties": { "GZBBAB": "166.000000", "GZBBAC": "76", "GZBBAD": "15", "GZBBGA": "202001" }, "geometry": { "type": "Point", "coordinates": [ 8330859.430649239569902, 4775684.799666018225253 ] } },
{ "type": "Feature", "properties": { "GZBBAB": "125.000000", "GZBBAC": "215", "GZBBAD": "25", "GZBBGA": "202001" }, "geometry": { "type": "Point", "coordinates": [ 8330341.808574452064931, 4772892.224735689349473 ] } },
{ "type": "Feature", "properties": { "GZBBAB": "53.000000", "GZBBAC": "323", "GZBBAD": "40", "GZBBGA": "202001" }, "geometry": { "type": "Point", "coordinates": [ 8328629.807984639890492, 4786972.963313131593168 ] } },
{ "type": "Feature", "properties": { "GZBBAB": "104.000000", "GZBBAC": "194", "GZBBAD": "48", "GZBBGA": "202001" }, "geometry": { "type": "Point", "coordinates": [ 8329283.115592543967068, 4784782.605308461934328 ] } },
{ "type": "Feature", "properties": { "GZBBAB": "12.000000", "GZBBAC": "102", "GZBBAD": "18", "GZBBGA": "202001" }, "geometry": { "type": "Point", "coordinates": [ 8338890.747094924561679, 4780187.814803691580892 ] } },
{ "type": "Feature", "properties": { "GZBBAB": "31.000000", "GZBBAC": "121", "GZBBAD": "27", "GZBBGA": "202001" }, "geometry": { "type": "Point", "coordinates": [ 8332751.633642222732306, 4779875.846782970242202 ] } },
{ "type": "Feature", "properties": { "GZBBAB": "156.000000", "GZBBAC": "246", "GZBBAD": "9", "GZBBGA": "202001" }, "geometry": { "type": "Point", "coordinates": [ 8342843.527457772754133, 4790731.794537705369294 ] } },
{ "type": "Feature", "properties": { "GZBBAB": "156.000000", "GZBBAC": "246", "GZBBAD": "15", "GZBBGA": "202001" }, "geometry": { "type": "Point", "coordinates": [ 8346266.304698052816093, 4793366.280245616100729 ] } },
{ "type": "Feature", "properties": { "GZBBAB": "77.000000", "GZBBAC": "167", "GZBBAD": "40", "GZBBGA": "202001" }, "geometry": { "type": "Point", "coordinates": [ 8347501.336106442846358, 4799955.185526693239808 ] } },
{ "type": "Feature", "properties": { "GZBBAB": "130.000000", "GZBBAC": "40", "GZBBAD": "47", "GZBBGA": "202001" }, "geometry": { "type": "Point", "coordinates": [ 8293600.338823145255446, 4815602.878169503994286 ] } },
{ "type": "Feature", "properties": { "GZBBAB": "120.000000", "GZBBAC": "210", "GZBBAD": "32", "GZBBGA": "202001" }, "geometry": { "type": "Point", "coordinates": [ 8307173.289013984613121, 4812654.796144344843924 ] } },
{ "type": "Feature", "properties": { "GZBBAB": "114.000000", "GZBBAC": "204", "GZBBAD": "40", "GZBBGA": "202001" }, "geometry": { "type": "Point", "coordinates": [ 8312146.420845535583794, 4817137.592431124299765 ] } },
{ "type": "Feature", "properties": { "GZBBAB": "116.000000", "GZBBAC": "206", "GZBBAD": "76", "GZBBGA": "202001" }, "geometry": { "type": "Point", "coordinates": [ 8294332.579495677724481, 4802911.796342744491994 ] } },
{ "type": "Feature", "properties": { "GZBBAB": "111.000000", "GZBBAC": "21", "GZBBAD": "48", "GZBBGA": "202001" }, "geometry": { "type": "Point", "coordinates": [ 8294590.523115388117731, 4804181.967416886240244 ] } },
{ "type": "Feature", "properties": { "GZBBAB": "84.000000", "GZBBAC": "354", "GZBBAD": "67", "GZBBGA": "202001" }, "geometry": { "type": "Point", "coordinates": [ 8296828.538338168524206, 4799822.873829731717706 ] } },
{ "type": "Feature", "properties": { "GZBBAB": "75.000000", "GZBBAC": "165", "GZBBAD": "60", "GZBBGA": "202001" }, "geometry": { "type": "Point", "coordinates": [ 8297758.184138590469956, 4797399.50127196777612 ] } },
{ "type": "Feature", "properties": { "GZBBAB": "92.000000", "GZBBAC": "182", "GZBBAD": "68", "GZBBGA": "202001" }, "geometry": { "type": "Point", "coordinates": [ 8312646.059345440939069, 4792314.277707619592547 ] } },
{ "type": "Feature", "properties": { "GZBBAB": "131.000000", "GZBBAC": "221", "GZBBAD": "57", "GZBBGA": "202001" }, "geometry": { "type": "Point", "coordinates": [ 8318980.627280842512846, 4813028.21668610163033 ] } },
{ "type": "Feature", "properties": { "GZBBAB": "111.000000", "GZBBAC": "201", "GZBBAD": "70", "GZBBGA": "202001" }, "geometry": { "type": "Point", "coordinates": [ 8328490.455993567593396, 4796847.095156166702509 ] } },
{ "type": "Feature", "properties": { "GZBBAB": "109.000000", "GZBBAC": "19", "GZBBAD": "40", "GZBBGA": "202001" }, "geometry": { "type": "Point", "coordinates": [ 8343938.396851611323655, 4770774.5701850252226 ] } },
{ "type": "Feature", "properties": { "GZBBAB": "103.000000", "GZBBAC": "193", "GZBBAD": "40", "GZBBGA": "202001" }, "geometry": { "type": "Point", "coordinates": [ 8345079.135780789889395, 4772473.835348213091493 ] } },
{ "type": "Feature", "properties": { "GZBBAB": "98.000000", "GZBBAC": "8", "GZBBAD": "55", "GZBBGA": "202001" }, "geometry": { "type": "Point", "coordinates": [ 8345868.009126299992204, 4773794.420609751716256 ] } },
{ "type": "Feature", "properties": { "GZBBAB": "18.000000", "GZBBAC": "108", "GZBBAD": "30", "GZBBGA": "202001" }, "geometry": { "type": "Point", "coordinates": [ 8347225.085253501310945, 4774732.029344121925533 ] } },
{ "type": "Feature", "properties": { "GZBBAB": "110.000000", "GZBBAC": "20", "GZBBAD": "80", "GZBBGA": "202001" }, "geometry": { "type": "Point", "coordinates": [ 8340410.529832975938916, 4770227.251058518886566 ] } },
{ "type": "Feature", "properties": { "GZBBAB": "124.000000", "GZBBAC": "34", "GZBBAD": "43", "GZBBGA": "202001" }, "geometry": { "type": "Point", "coordinates": [ 8348370.112420009449124, 4813309.784726874902844 ] } },
{ "type": "Feature", "properties": { "GZBBAB": "83.000000", "GZBBAC": "173", "GZBBAD": "10", "GZBBGA": "202001" }, "geometry": { "type": "Point", "coordinates": [ 8348502.767401953227818, 4811436.878571910783648 ] } },
{ "type": "Feature", "properties": { "GZBBAB": "72.000000", "GZBBAC": "342", "GZBBAD": "28", "GZBBGA": "202001" }, "geometry": { "type": "Point", "coordinates": [ 8347028.470446977764368, 4816530.896624929271638 ] } },
{ "type": "Feature", "properties": { "GZBBAB": "89.000000", "GZBBAC": "179", "GZBBAD": "59", "GZBBGA": "202001" }, "geometry": { "type": "Point", "coordinates": [ 8294841.173658438026905, 4806443.71185143198818 ] } },
{ "type": "Feature", "properties": { "GZBBAB": "109.000000", "GZBBAC": "19", "GZBBAD": "31", "GZBBGA": "202004" }, "geometry": { "type": "Point", "coordinates": [ 8308930.942275250330567, 4770502.797316631302238 ] } },
{ "type": "Feature", "properties": { "GZBBAB": "131.000000", "GZBBAC": "221", "GZBBAD": "56", "GZBBGA": "202001" }, "geometry": { "type": "Point", "coordinates": [ 8347360.074545518495142, 4796626.131647641770542 ] } },
{ "type": "Feature", "properties": { "GZBBAB": "145.000000", "GZBBAC": "235", "GZBBAD": "42", "GZBBGA": "202001" }, "geometry": { "type": "Point", "coordinates": [ 8304252.673637854866683, 4816427.100192575715482 ] } },
{ "type": "Feature", "properties": { "GZBBAB": "31.000000", "GZBBAC": "301", "GZBBAD": "9", "GZBBGA": "202001" }, "geometry": { "type": "Point", "coordinates": [ 8300871.489236957393587, 4780139.202580112032592 ] } },
{ "type": "Feature", "properties": { "GZBBAB": "108.000000", "GZBBAC": "18", "GZBBAD": "49", "GZBBGA": "202001" }, "geometry": { "type": "Point", "coordinates": [ 8314398.250792295671999, 4773108.247845924459398 ] } },
{ "type": "Feature", "properties": { "GZBBAB": "89.000000", "GZBBAC": "179", "GZBBAD": "45", "GZBBGA": "202001" }, "geometry": { "type": "Point", "coordinates": [ 8236939.132348555140197, 4771872.999341604299843 ] } },
{ "type": "Feature", "properties": { "GZBBAB": "83.000000", "GZBBAC": "173", "GZBBAD": "76", "GZBBGA": "202001" }, "geometry": { "type": "Point", "coordinates": [ 8236394.129629515111446, 4776917.949557431042194 ] } },
{ "type": "Feature", "properties": { "GZBBAB": "91.000000", "GZBBAC": "1", "GZBBAD": "82", "GZBBGA": "202001" }, "geometry": { "type": "Point", "coordinates": [ 8235742.432098740711808, 4778646.352021424099803 ] } },
{ "type": "Feature", "properties": { "GZBBAB": "66.000000", "GZBBAC": "336", "GZBBAD": "73", "GZBBGA": "202001" }, "geometry": { "type": "Point", "coordinates": [ 8236462.561577076092362, 4784471.181684501469135 ] } },
{ "type": "Feature", "properties": { "GZBBAB": "89.000000", "GZBBAC": "359", "GZBBAD": "36", "GZBBGA": "202001" }, "geometry": { "type": "Point", "coordinates": [ 8227699.365134881809354, 4784833.823608078062534 ] } },
{ "type": "Feature", "properties": { "GZBBAB": "13.000000", "GZBBAC": "283", "GZBBAD": "48", "GZBBGA": "202001" }, "geometry": { "type": "Point", "coordinates": [ 8242722.417359578423202, 4814487.756655342876911 ] } },
{ "type": "Feature", "properties": { "GZBBAB": "79.000000", "GZBBAC": "169", "GZBBAD": "72", "GZBBGA": "202001" }, "geometry": { "type": "Point", "coordinates": [ 8241775.84118552878499, 4787759.710208574309945 ] } },
{ "type": "Feature", "properties": { "GZBBAB": "72.000000", "GZBBAC": "342", "GZBBAD": "50", "GZBBGA": "202001" }, "geometry": { "type": "Point", "coordinates": [ 8242843.566529580391943, 4777437.233457066118717 ] } },
{ "type": "Feature", "properties": { "GZBBAB": "91.000000", "GZBBAC": "181", "GZBBAD": "45", "GZBBGA": "202001" }, "geometry": { "type": "Point", "coordinates": [ 8289952.735490033403039, 4773179.060096097178757 ] } },
{ "type": "Feature", "properties": { "GZBBAB": "90.000000", "GZBBAC": "180", "GZBBAD": "41", "GZBBGA": "202001" }, "geometry": { "type": "Point", "coordinates": [ 8287484.098007818683982, 4770068.227775575593114 ] } },
{ "type": "Feature", "properties": { "GZBBAB": "20.000000", "GZBBAC": "290", "GZBBAD": "44", "GZBBGA": "202001" }, "geometry": { "type": "Point", "coordinates": [ 8289814.546537145972252, 4779850.405188579112291 ] } },
{ "type": "Feature", "properties": { "GZBBAB": "99.000000", "GZBBAC": "189", "GZBBAD": "20", "GZBBGA": "202001" }, "geometry": { "type": "Point", "coordinates": [ 8290823.104546893388033, 4780862.197105158120394 ] } },
{ "type": "Feature", "properties": { "GZBBAB": "103.000000", "GZBBAC": "13", "GZBBAD": "14", "GZBBGA": "202001" }, "geometry": { "type": "Point", "coordinates": [ 8290676.525493716821074, 4789124.232645479030907 ] } },
{ "type": "Feature", "properties": { "GZBBAB": "50.000000", "GZBBAC": "320", "GZBBAD": "71", "GZBBGA": "202001" }, "geometry": { "type": "Point", "coordinates": [ 8284369.449485965073109, 4809404.676295503042638 ] } },
{ "type": "Feature", "properties": { "GZBBAB": "108.000000", "GZBBAC": "18", "GZBBAD": "32", "GZBBGA": "202001" }, "geometry": { "type": "Point", "coordinates": [ 8277099.451557368040085, 4807982.006490196101367 ] } },
{ "type": "Feature", "properties": { "GZBBAB": "69.000000", "GZBBAC": "159", "GZBBAD": "82", "GZBBGA": "202001" }, "geometry": { "type": "Point", "coordinates": [ 8276038.74212715215981, 4809338.795614471659064 ] } },
{ "type": "Feature", "properties": { "GZBBAB": "135.000000", "GZBBAC": "225", "GZBBAD": "23", "GZBBGA": "202001" }, "geometry": { "type": "Point", "coordinates": [ 8275079.619593025185168, 4775033.9595509422943 ] } },
{ "type": "Feature", "properties": { "GZBBAB": "135.000000", "GZBBAC": "225", "GZBBAD": "20", "GZBBGA": "202001" }, "geometry": { "type": "Point", "coordinates": [ 8274490.01154431886971, 4778082.751446376554668 ] } },
{ "type": "Feature", "properties": { "GZBBAB": "101.000000", "GZBBAC": "191", "GZBBAD": "45", "GZBBGA": "202001" }, "geometry": { "type": "Point", "coordinates": [ 8275057.857295347377658, 4782328.03099671099335 ] } },
{ "type": "Feature", "properties": { "GZBBAB": "86.000000", "GZBBAC": "176", "GZBBAD": "58", "GZBBGA": "202001" }, "geometry": { "type": "Point", "coordinates": [ 8276587.281007392331958, 4792355.34334166906774 ] } },
{ "type": "Feature", "properties": { "GZBBAB": "77.000000", "GZBBAC": "347", "GZBBAD": "50", "GZBBGA": "202001" }, "geometry": { "type": "Point", "coordinates": [ 8252718.673115089535713, 4784598.88186361361295 ] } },
{ "type": "Feature", "properties": { "GZBBAB": "66.000000", "GZBBAC": "336", "GZBBAD": "13", "GZBBGA": "202001" }, "geometry": { "type": "Point", "coordinates": [ 8249516.894248375669122, 4801337.937527400441468 ] } },
{ "type": "Feature", "properties": { "GZBBAB": "49.000000", "GZBBAC": "139", "GZBBAD": "63", "GZBBGA": "202001" }, "geometry": { "type": "Point", "coordinates": [ 8245347.380071965046227, 4803227.864439513534307 ] } },
{ "type": "Feature", "properties": { "GZBBAB": "18.000000", "GZBBAC": "288", "GZBBAD": "40", "GZBBGA": "202001" }, "geometry": { "type": "Point", "coordinates": [ 8239994.490956388413906, 4810579.361969663761556 ] } },
{ "type": "Feature", "properties": { "GZBBAB": "55.000000", "GZBBAC": "325", "GZBBAD": "62", "GZBBGA": "202001" }, "geometry": { "type": "Point", "coordinates": [ 8256874.876559687778354, 4803196.519041075371206 ] } },
{ "type": "Feature", "properties": { "GZBBAB": "68.000000", "GZBBAC": "158", "GZBBAD": "61", "GZBBGA": "202001" }, "geometry": { "type": "Point", "coordinates": [ 8257118.643055944703519, 4801087.845179067924619 ] } },
{ "type": "Feature", "properties": { "GZBBAB": "80.000000", "GZBBAC": "350", "GZBBAD": "81", "GZBBGA": "202001" }, "geometry": { "type": "Point", "coordinates": [ 8258515.842546932399273, 4816985.125367560423911 ] } },
{ "type": "Feature", "properties": { "GZBBAB": "66.000000", "GZBBAC": "336", "GZBBAD": "75", "GZBBGA": "202004" }, "geometry": { "type": "Point", "coordinates": [ 8260909.329205963760614, 4815192.518522629514337 ] } },
{ "type": "Feature", "properties": { "GZBBAB": "68.000000", "GZBBAC": "158", "GZBBAD": "48", "GZBBGA": "202001" }, "geometry": { "type": "Point", "coordinates": [ 8260629.677787641063333, 4811493.742605688050389 ] } },
{ "type": "Feature", "properties": { "GZBBAB": "20.000000", "GZBBAC": "110", "GZBBAD": "27", "GZBBGA": "202001" }, "geometry": { "type": "Point", "coordinates": [ 8245544.257304868660867, 4815962.349047632887959 ] } },
{ "type": "Feature", "properties": { "GZBBAB": "111.000000", "GZBBAC": "201", "GZBBAD": "30", "GZBBGA": "202001" }, "geometry": { "type": "Point", "coordinates": [ 8244494.003840615972877, 4770825.650470366701484 ] } },
{ "type": "Feature", "properties": { "GZBBAB": "66.000000", "GZBBAC": "336", "GZBBAD": "67", "GZBBGA": "202001" }, "geometry": { "type": "Point", "coordinates": [ 8244520.384428751654923, 4807794.000415260903537 ] } },
{ "type": "Feature", "properties": { "GZBBAB": "90.000000", "GZBBAC": "0", "GZBBAD": "30", "GZBBGA": "202001" }, "geometry": { "type": "Point", "coordinates": [ 8255156.627630749717355, 4778753.002193035557866 ] } },
{ "type": "Feature", "properties": { "GZBBAB": "90.000000", "GZBBAC": "0", "GZBBAD": "49", "GZBBGA": "202001" }, "geometry": { "type": "Point", "coordinates": [ 8253503.811004672199488, 4789520.349610698409379 ] } },
{ "type": "Feature", "properties": { "GZBBAB": "40.000000", "GZBBAC": "130", "GZBBAD": "65", "GZBBGA": "202001" }, "geometry": { "type": "Point", "coordinates": [ 8266882.717609069310129, 4810006.215858211740851 ] } },
{ "type": "Feature", "properties": { "GZBBAB": "63.000000", "GZBBAC": "333", "GZBBAD": "82", "GZBBGA": "202001" }, "geometry": { "type": "Point", "coordinates": [ 8270078.868735552765429, 4814481.488862535916269 ] } },
{ "type": "Feature", "properties": { "GZBBAB": "80.000000", "GZBBAC": "170", "GZBBAD": "58", "GZBBGA": "202001" }, "geometry": { "type": "Point", "coordinates": [ 8269948.297649461776018, 4812105.124376291409135 ] } },
{ "type": "Feature", "properties": { "GZBBAB": "87.000000", "GZBBAC": "357", "GZBBAD": "51", "GZBBGA": "202001" }, "geometry": { "type": "Point", "coordinates": [ 8272305.134134888648987, 4786002.030426724813879 ] } },
{ "type": "Feature", "properties": { "GZBBAB": "90.000000", "GZBBAC": "180", "GZBBAD": "48", "GZBBGA": "202001" }, "geometry": { "type": "Point", "coordinates": [ 8273474.730914657004178, 4783612.240871501155198 ] } },
{ "type": "Feature", "properties": { "GZBBAB": "127.000000", "GZBBAC": "37", "GZBBAD": "38", "GZBBGA": "202001" }, "geometry": { "type": "Point", "coordinates": [ 8274864.849956394173205, 4776607.049632135778666 ] } },
{ "type": "Feature", "properties": { "GZBBAB": "72.000000", "GZBBAC": "342", "GZBBAD": "87", "GZBBGA": "202001" }, "geometry": { "type": "Point", "coordinates": [ 8274966.051859569735825, 4810912.399074957706034 ] } },
{ "type": "Feature", "properties": { "GZBBAB": "87.000000", "GZBBAC": "177", "GZBBAD": "60", "GZBBGA": "202001" }, "geometry": { "type": "Point", "coordinates": [ 8291579.814980604685843, 4791856.691243043169379 ] } },
{ "type": "Feature", "properties": { "GZBBAB": "20.000000", "GZBBAC": "110", "GZBBAD": "37", "GZBBGA": "202001" }, "geometry": { "type": "Point", "coordinates": [ 8241301.070958594791591, 4810242.55450810212642 ] } },
{ "type": "Feature", "properties": { "GZBBAB": "113.000000", "GZBBAC": "203", "GZBBAD": "55", "GZBBGA": "202001" }, "geometry": { "type": "Point", "coordinates": [ 8244671.161117418669164, 4775709.629442816600204 ] } },
{ "type": "Feature", "properties": { "GZBBAB": "98.000000", "GZBBAC": "8", "GZBBAD": "73", "GZBBGA": "202001" }, "geometry": { "type": "Point", "coordinates": [ 8250250.65945412311703, 4781470.424330133013427 ] } },
{ "type": "Feature", "properties": { "GZBBAB": "78.000000", "GZBBAC": "348", "GZBBAD": "70", "GZBBGA": "202001" }, "geometry": { "type": "Point", "coordinates": [ 8251539.10529638081789, 4793739.869453554973006 ] } },
{ "type": "Feature", "properties": { "GZBBAB": "70.000000", "GZBBAC": "160", "GZBBAD": "45", "GZBBGA": "202001" }, "geometry": { "type": "Point", "coordinates": [ 8252336.020317198708653, 4793011.619684748351574 ] } },
{ "type": "Feature", "properties": { "GZBBAB": "74.000000", "GZBBAC": "344", "GZBBAD": "46", "GZBBGA": "202001" }, "geometry": { "type": "Point", "coordinates": [ 8260103.006384081207216, 4809034.318931241519749 ] } },
{ "type": "Feature", "properties": { "GZBBAB": "80.000000", "GZBBAC": "170", "GZBBAD": "70", "GZBBGA": "202001" }, "geometry": { "type": "Point", "coordinates": [ 8282298.648535463958979, 4796997.134846295230091 ] } },
{ "type": "Feature", "properties": { "GZBBAB": "104.000000", "GZBBAC": "14", "GZBBAD": "18", "GZBBGA": "202001" }, "geometry": { "type": "Point", "coordinates": [ 8292038.187714646570385, 4786790.800019349902868 ] } },
{ "type": "Feature", "properties": { "GZBBAB": "137.000000", "GZBBAC": "47", "GZBBAD": "62", "GZBBGA": "202005" }, "geometry": { "type": "Point", "coordinates": [ 8241442.641293970867991, 4742633.773859244771302 ] } },
{ "type": "Feature", "properties": { "GZBBAB": "93.000000", "GZBBAC": "183", "GZBBAD": "44", "GZBBGA": "202005" }, "geometry": { "type": "Point", "coordinates": [ 8244790.784236140549183, 4736348.253417501226068 ] } },
{ "type": "Feature", "properties": { "GZBBAB": "116.000000", "GZBBAC": "26", "GZBBAD": "53", "GZBBGA": "202005" }, "geometry": { "type": "Point", "coordinates": [ 8269581.748018816113472, 4725835.921605987474322 ] } },
{ "type": "Feature", "properties": { "GZBBAB": "111.000000", "GZBBAC": "21", "GZBBAD": "42", "GZBBGA": "202005" }, "geometry": { "type": "Point", "coordinates": [ 8278645.038018384948373, 4727507.560958449728787 ] } },
{ "type": "Feature", "properties": { "GZBBAB": "111.000000", "GZBBAC": "201", "GZBBAD": "55", "GZBBGA": "202005" }, "geometry": { "type": "Point", "coordinates": [ 8280606.27883284445852, 4728936.972038755193353 ] } },
{ "type": "Feature", "properties": { "GZBBAB": "116.000000", "GZBBAC": "26", "GZBBAD": "54", "GZBBGA": "202005" }, "geometry": { "type": "Point", "coordinates": [ 8270022.563209957443178, 4732555.759024390950799 ] } },
{ "type": "Feature", "properties": { "GZBBAB": "116.000000", "GZBBAC": "26", "GZBBAD": "50", "GZBBGA": "202005" }, "geometry": { "type": "Point", "coordinates": [ 8269118.56886778306216, 4730486.399589992128313 ] } },
{ "type": "Feature", "properties": { "GZBBAB": "116.000000", "GZBBAC": "26", "GZBBAD": "52", "GZBBGA": "202005" }, "geometry": { "type": "Point", "coordinates": [ 8269851.433775673620403, 4727792.914978387765586 ] } },
{ "type": "Feature", "properties": { "GZBBAB": "84.000000", "GZBBAC": "174", "GZBBAD": "71", "GZBBGA": "202005" }, "geometry": { "type": "Point", "coordinates": [ 8240473.334236650727689, 4750585.904175221920013 ] } },
{ "type": "Feature", "properties": { "GZBBAB": "140.000000", "GZBBAC": "230", "GZBBAD": "32", "GZBBGA": "202001" }, "geometry": { "type": "Point", "coordinates": [ 8288319.597478501498699, 4751084.041802943684161 ] } },
{ "type": "Feature", "properties": { "GZBBAB": "103.000000", "GZBBAC": "193", "GZBBAD": "72", "GZBBGA": "202005" }, "geometry": { "type": "Point", "coordinates": [ 8241656.90554213989526, 4752067.276755206286907 ] } },
{ "type": "Feature", "properties": { "GZBBAB": "112.000000", "GZBBAC": "22", "GZBBAD": "80", "GZBBGA": "202005" }, "geometry": { "type": "Point", "coordinates": [ 8241060.700431423261762, 4746766.178334470838308 ] } },
{ "type": "Feature", "properties": { "GZBBAB": "97.000000", "GZBBAC": "187", "GZBBAD": "40", "GZBBGA": "202005" }, "geometry": { "type": "Point", "coordinates": [ 8244728.426668532192707, 4733857.743073035031557 ] } },
{ "type": "Feature", "properties": { "GZBBAB": "116.000000", "GZBBAC": "26", "GZBBAD": "55", "GZBBGA": "202005" }, "geometry": { "type": "Point", "coordinates": [ 8268000.957361365668476, 4723771.789529973641038 ] } },
{ "type": "Feature", "properties": { "GZBBAB": "103.000000", "GZBBAC": "193", "GZBBAD": "40", "GZBBGA": "202005" }, "geometry": { "type": "Point", "coordinates": [ 8241068.944845355115831, 4754114.609591691754758 ] } },
{ "type": "Feature", "properties": { "GZBBAB": "115.000000", "GZBBAC": "205", "GZBBAD": "48", "GZBBGA": "202005" }, "geometry": { "type": "Point", "coordinates": [ 8242717.097779816947877, 4730879.029251344501972 ] } },
{ "type": "Feature", "properties": { "GZBBAB": "126.000000", "GZBBAC": "36", "GZBBAD": "28", "GZBBGA": "202005" }, "geometry": { "type": "Point", "coordinates": [ 8244829.227310139685869, 4739209.720124759711325 ] } },
{ "type": "Feature", "properties": { "GZBBAB": "70.000000", "GZBBAC": "340", "GZBBAD": "32", "GZBBGA": "202001" }, "geometry": { "type": "Point", "coordinates": [ 8267764.545307678170502, 4755277.049011292867362 ] } },
{ "type": "Feature", "properties": { "GZBBAB": "91.000000", "GZBBAC": "181", "GZBBAD": "50", "GZBBGA": "202005" }, "geometry": { "type": "Point", "coordinates": [ 8241456.107283527962863, 4756367.453492045402527 ] } },
{ "type": "Feature", "properties": { "GZBBAB": "88.000000", "GZBBAC": "358", "GZBBAD": "52", "GZBBGA": "202005" }, "geometry": { "type": "Point", "coordinates": [ 8255788.13018871191889, 4732897.40272752661258 ] } },
{ "type": "Feature", "properties": { "GZBBAB": "134.000000", "GZBBAC": "44", "GZBBAD": "60", "GZBBGA": "202005" }, "geometry": { "type": "Point", "coordinates": [ 8277369.010864812880754, 4722640.828461327590048 ] } },
{ "type": "Feature", "properties": { "GZBBAB": "116.000000", "GZBBAC": "206", "GZBBAD": "54", "GZBBGA": "202005" }, "geometry": { "type": "Point", "coordinates": [ 8281996.082892930135131, 4726429.696920245885849 ] } },
{ "type": "Feature", "properties": { "GZBBAB": "117.000000", "GZBBAC": "27", "GZBBAD": "31", "GZBBGA": "202001" }, "geometry": { "type": "Point", "coordinates": [ 8341000.193661988712847, 4732105.390417165122926 ] } },
{ "type": "Feature", "properties": { "GZBBAB": "118.000000", "GZBBAC": "28", "GZBBAD": "32", "GZBBGA": "202001" }, "geometry": { "type": "Point", "coordinates": [ 8339396.499453882686794, 4730011.626216296106577 ] } },
{ "type": "Feature", "properties": { "GZBBAB": "108.000000", "GZBBAC": "18", "GZBBAD": "43", "GZBBGA": "202001" }, "geometry": { "type": "Point", "coordinates": [ 8343749.347222439944744, 4728086.624037563800812 ] } },
{ "type": "Feature", "properties": { "GZBBAB": "118.000000", "GZBBAC": "208", "GZBBAD": "12", "GZBBGA": "202001" }, "geometry": { "type": "Point", "coordinates": [ 8338072.443560597486794, 4728199.020950600504875 ] } },
{ "type": "Feature", "properties": { "GZBBAB": "137.000000", "GZBBAC": "227", "GZBBAD": "41", "GZBBGA": "202001" }, "geometry": { "type": "Point", "coordinates": [ 8334301.929436387494206, 4727408.23943061940372 ] } },
{ "type": "Feature", "properties": { "GZBBAB": "137.000000", "GZBBAC": "227", "GZBBAD": "43", "GZBBGA": "202001" }, "geometry": { "type": "Point", "coordinates": [ 8330773.21595639642328, 4727794.238215158693492 ] } },
{ "type": "Feature", "properties": { "GZBBAB": "108.000000", "GZBBAC": "18", "GZBBAD": "65", "GZBBGA": "202001" }, "geometry": { "type": "Point", "coordinates": [ 8347246.970885719172657, 4763734.899730824865401 ] } },
{ "type": "Feature", "properties": { "GZBBAB": "118.000000", "GZBBAC": "28", "GZBBAD": "65", "GZBBGA": "202001" }, "geometry": { "type": "Point", "coordinates": [ 8340093.610761794261634, 4769714.553928223438561 ] } },
{ "type": "Feature", "properties": { "GZBBAB": "137.000000", "GZBBAC": "47", "GZBBAD": "47", "GZBBGA": "202001" }, "geometry": { "type": "Point", "coordinates": [ 8315543.089351533912122, 4725857.103717385791242 ] } },
{ "type": "Feature", "properties": { "GZBBAB": "135.000000", "GZBBAC": "45", "GZBBAD": "48", "GZBBGA": "202001" }, "geometry": { "type": "Point", "coordinates": [ 8306432.397694603540003, 4733977.236023440957069 ] } },
{ "type": "Feature", "properties": { "GZBBAB": "135.000000", "GZBBAC": "45", "GZBBAD": "53", "GZBBGA": "202001" }, "geometry": { "type": "Point", "coordinates": [ 8309236.257871959358454, 4735594.446042376570404 ] } },
{ "type": "Feature", "properties": { "GZBBAB": "135.000000", "GZBBAC": "45", "GZBBAD": "43", "GZBBGA": "202001" }, "geometry": { "type": "Point", "coordinates": [ 8311022.44980632327497, 4735740.448738827370107 ] } },
{ "type": "Feature", "properties": { "GZBBAB": "136.000000", "GZBBAC": "46", "GZBBAD": "39", "GZBBGA": "202001" }, "geometry": { "type": "Point", "coordinates": [ 8317652.904651741497219, 4726665.963184750638902 ] } },
{ "type": "Feature", "properties": { "GZBBAB": "132.000000", "GZBBAC": "42", "GZBBAD": "53", "GZBBGA": "202005" }, "geometry": { "type": "Point", "coordinates": [ 8345944.093841834925115, 4734946.21650031581521 ] } },
{ "type": "Feature", "properties": { "GZBBAB": "148.000000", "GZBBAC": "58", "GZBBAD": "63", "GZBBGA": "202005" }, "geometry": { "type": "Point", "coordinates": [ 8340248.064520076848567, 4737360.124330040067434 ] } },
{ "type": "Feature", "properties": { "GZBBAB": "88.000000", "GZBBAC": "358", "GZBBAD": "31", "GZBBGA": "202001" }, "geometry": { "type": "Point", "coordinates": [ 8308199.624525958672166, 4743571.618374719284475 ] } },
{ "type": "Feature", "properties": { "GZBBAB": "55.000000", "GZBBAC": "325", "GZBBAD": "51", "GZBBGA": "202001" }, "geometry": { "type": "Point", "coordinates": [ 8299603.610136060975492, 4747579.857364628463984 ] } },
{ "type": "Feature", "properties": { "GZBBAB": "102.000000", "GZBBAC": "192", "GZBBAD": "41", "GZBBGA": "202001" }, "geometry": { "type": "Point", "coordinates": [ 8343150.997186925262213, 4726404.345829194411635 ] } },
{ "type": "Feature", "properties": { "GZBBAB": "122.000000", "GZBBAC": "32", "GZBBAD": "50", "GZBBGA": "202005" }, "geometry": { "type": "Point", "coordinates": [ 8333034.86484088934958, 4741141.283720089122653 ] } },
{ "type": "Feature", "properties": { "GZBBAB": "107.000000", "GZBBAC": "17", "GZBBAD": "55", "GZBBGA": "202001" }, "geometry": { "type": "Point", "coordinates": [ 8333175.309207173064351, 4766983.399862939491868 ] } },
{ "type": "Feature", "properties": { "GZBBAB": "145.000000", "GZBBAC": "55", "GZBBAD": "62", "GZBBGA": "202005" }, "geometry": { "type": "Point", "coordinates": [ 8340601.863951092585921, 4734718.026106339879334 ] } },
{ "type": "Feature", "properties": { "GZBBAB": "110.000000", "GZBBAC": "20", "GZBBAD": "62", "GZBBGA": "202001" }, "geometry": { "type": "Point", "coordinates": [ 8344951.083895126357675, 4731444.023131658323109 ] } },
{ "type": "Feature", "properties": { "GZBBAB": "120.000000", "GZBBAC": "210", "GZBBAD": "58", "GZBBGA": "202001" }, "geometry": { "type": "Point", "coordinates": [ 8343396.978470641188323, 4723310.058368852362037 ] } },
{ "type": "Feature", "properties": { "GZBBAB": "102.000000", "GZBBAC": "12", "GZBBAD": "43", "GZBBGA": "202005" }, "geometry": { "type": "Point", "coordinates": [ 8343983.411434657871723, 4722308.471968325786293 ] } },
{ "type": "Feature", "properties": { "GZBBAB": "134.000000", "GZBBAC": "44", "GZBBAD": "65", "GZBBGA": "202005" }, "geometry": { "type": "Point", "coordinates": [ 8337415.758614156395197, 4737654.199099418707192 ] } },
{ "type": "Feature", "properties": { "GZBBAB": "115.000000", "GZBBAC": "25", "GZBBAD": "40", "GZBBGA": "202001" }, "geometry": { "type": "Point", "coordinates": [ 8336835.310442921705544, 4736948.464949904941022 ] } },
{ "type": "Feature", "properties": { "GZBBAB": "135.000000", "GZBBAC": "45", "GZBBAD": "53", "GZBBGA": "202001" }, "geometry": { "type": "Point", "coordinates": [ 8347301.488746935501695, 4766180.89350700378418 ] } },
{ "type": "Feature", "properties": { "GZBBAB": "145.000000", "GZBBAC": "55", "GZBBAD": "65", "GZBBGA": "202001" }, "geometry": { "type": "Point", "coordinates": [ 8346828.131968322210014, 4757380.101982047781348 ] } },
{ "type": "Feature", "properties": { "GZBBAB": "58.000000", "GZBBAC": "328", "GZBBAD": "47", "GZBBGA": "202005" }, "geometry": { "type": "Point", "coordinates": [ 8302613.690928609110415, 4726385.452980381436646 ] } },
{ "type": "Feature", "properties": { "GZBBAB": "67.000000", "GZBBAC": "157", "GZBBAD": "43", "GZBBGA": "202001" }, "geometry": { "type": "Point", "coordinates": [ 8296030.783687265589833, 4747118.178497524932027 ] } },
{ "type": "Feature", "properties": { "GZBBAB": "129.000000", "GZBBAC": "39", "GZBBAD": "10", "GZBBGA": "202005" }, "geometry": { "type": "Point", "coordinates": [ 8325517.661983172409236, 4757156.499195371754467 ] } },
{ "type": "Feature", "properties": { "GZBBAB": "15.000000", "GZBBAC": "105", "GZBBAD": "30", "GZBBGA": "202001" }, "geometry": { "type": "Point", "coordinates": [ 8234899.770094269886613, 4857165.658519099466503 ] } },
{ "type": "Feature", "properties": { "GZBBAB": "28.000000", "GZBBAC": "298", "GZBBAD": "70", "GZBBGA": "202001" }, "geometry": { "type": "Point", "coordinates": [ 8233713.890756404958665, 4858041.141389395110309 ] } },
{ "type": "Feature", "properties": { "GZBBAB": "3.000000", "GZBBAC": "93", "GZBBAD": "42", "GZBBGA": "202001" }, "geometry": { "type": "Point", "coordinates": [ 8230609.943119213916361, 4845725.937518352642655 ] } },
{ "type": "Feature", "properties": { "GZBBAB": "63.000000", "GZBBAC": "333", "GZBBAD": "38", "GZBBGA": "202001" }, "geometry": { "type": "Point", "coordinates": [ 8232489.944112908095121, 4845980.955534222535789 ] } },
{ "type": "Feature", "properties": { "GZBBAB": "63.000000", "GZBBAC": "333", "GZBBAD": "30", "GZBBGA": "202001" }, "geometry": { "type": "Point", "coordinates": [ 8234037.932830458506942, 4830044.863650379702449 ] } },
{ "type": "Feature", "properties": { "GZBBAB": "27.000000", "GZBBAC": "117", "GZBBAD": "50", "GZBBGA": "202001" }, "geometry": { "type": "Point", "coordinates": [ 8236971.770922927185893, 4819786.167897334322333 ] } },
{ "type": "Feature", "properties": { "GZBBAB": "42.000000", "GZBBAC": "312", "GZBBAD": "48", "GZBBGA": "202001" }, "geometry": { "type": "Point", "coordinates": [ 8235079.454165459610522, 4822691.963339738547802 ] } },
{ "type": "Feature", "properties": { "GZBBAB": "60.000000", "GZBBAC": "330", "GZBBAD": "18", "GZBBGA": "202001" }, "geometry": { "type": "Point", "coordinates": [ 8235897.688950195908546, 4827050.530706058256328 ] } },
{ "type": "Feature", "properties": { "GZBBAB": "18.000000", "GZBBAC": "288", "GZBBAD": "75", "GZBBGA": "202001" }, "geometry": { "type": "Point", "coordinates": [ 8224843.722457209601998, 4832671.836259683594108 ] } },
{ "type": "Feature", "properties": { "GZBBAB": "58.000000", "GZBBAC": "148", "GZBBAD": "72", "GZBBGA": "202001" }, "geometry": { "type": "Point", "coordinates": [ 8228270.816730948165059, 4846921.380963680334389 ] } },
{ "type": "Feature", "properties": { "GZBBAB": "175.000000", "GZBBAC": "265", "GZBBAD": "12", "GZBBGA": "202001" }, "geometry": { "type": "Point", "coordinates": [ 8229457.160945609211922, 4827128.440011197701097 ] } },
{ "type": "Feature", "properties": { "GZBBAB": "13.000000", "GZBBAC": "103", "GZBBAD": "78", "GZBBGA": "202001" }, "geometry": { "type": "Point", "coordinates": [ 8227663.29013161547482, 4831878.436355400830507 ] } },
{ "type": "Feature", "properties": { "GZBBAB": "79.000000", "GZBBAC": "169", "GZBBAD": "65", "GZBBGA": "202001" }, "geometry": { "type": "Point", "coordinates": [ 8230317.521468005143106, 4858832.514079777523875 ] } },
{ "type": "Feature", "properties": { "GZBBAB": "26.000000", "GZBBAC": "116", "GZBBAD": "80", "GZBBGA": "202001" }, "geometry": { "type": "Point", "coordinates": [ 8223230.214281054213643, 4835841.72042590379715 ] } },
{ "type": "Feature", "properties": { "GZBBAB": "90.000000", "GZBBAC": "0", "GZBBAD": "63", "GZBBGA": "202011" }, "geometry": { "type": "Point", "coordinates": [ 8228883.67172188591212, 4736063.36998406611383 ] } },
{ "type": "Feature", "properties": { "GZBBAB": "62.000000", "GZBBAC": "332", "GZBBAD": "38", "GZBBGA": "202001" }, "geometry": { "type": "Point", "coordinates": [ 8207819.521650802344084, 4778235.709173964336514 ] } }
]
}
