{
"type": "FeatureCollection",
"name": "water_labels",
"crs": { "type": "name", "properties": { "name": "urn:ogc:def:crs:EPSG::3857" } },
"features": [
{ "type": "Feature", "properties": { "label": "吾" }, "geometry": { "type": "Point", "coordinates": [ 8319553.834391186013818, 4725024.698503155261278 ] } },
{ "type": "Feature", "properties": { "label": "鲁" }, "geometry": { "type": "Point", "coordinates": [ 8321098.467566641047597, 4725606.713893097825348 ] } },
{ "type": "Feature", "properties": { "label": "尕" }, "geometry": { "type": "Point", "coordinates": [ 8321940.333058371208608, 4726155.589467346668243 ] } },
{ "type": "Feature", "properties": { "label": "提" }, "geometry": { "type": "Point", "coordinates": [ 8323483.74363555572927, 4726423.778864317573607 ] } },
{ "type": "Feature", "properties": { "label": "拉" }, "geometry": { "type": "Point", "coordinates": [ 8313956.792753547430038, 4726928.419760300777853 ] } },
{ "type": "Feature", "properties": { "label": "塔" }, "geometry": { "type": "Point", "coordinates": [ 8314792.366315797902644, 4727820.243667972274125 ] } },
{ "type": "Feature", "properties": { "label": "拉" }, "geometry": { "type": "Point", "coordinates": [ 8315918.981534395366907, 4728685.22781602665782 ] } },
{ "type": "Feature", "properties": { "label": "沙" }, "geometry": { "type": "Point", "coordinates": [ 8316985.373147499747574, 4729630.875794216059148 ] } },
{ "type": "Feature", "properties": { "label": "提" }, "geometry": { "type": "Point", "coordinates": [ 8341906.15156237501651, 4731439.649068897590041 ] } },
{ "type": "Feature", "properties": { "label": "尕" }, "geometry": { "type": "Point", "coordinates": [ 8340528.137169882655144, 4729664.123547907918692 ] } },
{ "type": "Feature", "properties": { "label": "鲁" }, "geometry": { "type": "Point", "coordinates": [ 8339056.217427806928754, 4727952.051382099278271 ] } },
{ "type": "Feature", "properties": { "label": "吾" }, "geometry": { "type": "Point", "coordinates": [ 8337217.175547075457871, 4726475.226107450202107 ] } },
{ "type": "Feature", "properties": { "label": "阿" }, "geometry": { "type": "Point", "coordinates": [ 8337853.015814022161067, 4737917.677182398736477 ] } },
{ "type": "Feature", "properties": { "label": "特" }, "geometry": { "type": "Point", "coordinates": [ 8338930.672097852453589, 4737288.89823888707906 ] } },
{ "type": "Feature", "properties": { "label": "耶" }, "geometry": { "type": "Point", "coordinates": [ 8340415.671285192482173, 4736249.736427364870906 ] } },
{ "type": "Feature", "properties": { "label": "拉" }, "geometry": { "type": "Point", "coordinates": [ 8343797.484590072184801, 4734809.366576255299151 ] } },
{ "type": "Feature", "properties": { "label": "克" }, "geometry": { "type": "Point", "coordinates": [ 8344832.506845301948488, 4734200.847115361131728 ] } },
{ "type": "Feature", "properties": { "label": "依" }, "geometry": { "type": "Point", "coordinates": [ 8342455.817382809706032, 4735305.614139454439282 ] } },
{ "type": "Feature", "properties": { "label": "克" }, "geometry": { "type": "Point", "coordinates": [ 8306997.614352755248547, 4758459.761991738341749 ] } },
{ "type": "Feature", "properties": { "label": "其" }, "geometry": { "type": "Point", "coordinates": [ 8306943.881403623148799, 4757708.304848824627697 ] } },
{ "type": "Feature", "properties": { "label": "克" }, "geometry": { "type": "Point", "coordinates": [ 8306853.773869831115007, 4756750.223510128445923 ] } },
{ "type": "Feature", "properties": { "label": "托" }, "geometry": { "type": "Point", "coordinates": [ 8306707.102725573815405, 4755904.767876716330647 ] } },
{ "type": "Feature", "properties": { "label": "尔" }, "geometry": { "type": "Point", "coordinates": [ 8306485.516624266281724, 4755040.418614496476948 ] } },
{ "type": "Feature", "properties": { "label": "冰" }, "geometry": { "type": "Point", "coordinates": [ 8306151.771273767575622, 4754138.30652753636241 ] } },
{ "type": "Feature", "properties": { "label": "川" }, "geometry": { "type": "Point", "coordinates": [ 8305593.606353657320142, 4753292.016224938444793 ] } },
{ "type": "Feature", "properties": { "label": "川" }, "geometry": { "type": "Point", "coordinates": [ 8300215.171059536747634, 4755079.347396952100098 ] } },
{ "type": "Feature", "properties": { "label": "冰" }, "geometry": { "type": "Point", "coordinates": [ 8300586.018641530536115, 4755794.0601586708799 ] } },
{ "type": "Feature", "properties": { "label": "尔" }, "geometry": { "type": "Point", "coordinates": [ 8300862.738288984633982, 4756658.768027864396572 ] } },
{ "type": "Feature", "properties": { "label": "托" }, "geometry": { "type": "Point", "coordinates": [ 8300989.698808782733977, 4757466.746530969627202 ] } },
{ "type": "Feature", "properties": { "label": "塔" }, "geometry": { "type": "Point", "coordinates": [ 8301985.617924971506, 4761170.42709219455719 ] } },
{ "type": "Feature", "properties": { "label": "尔" }, "geometry": { "type": "Point", "coordinates": [ 8301689.466445577330887, 4760286.522030652500689 ] } },
{ "type": "Feature", "properties": { "label": "瓦" }, "geometry": { "type": "Point", "coordinates": [ 8301412.218620132654905, 4759346.384973550215364 ] } },
{ "type": "Feature", "properties": { "label": "孜" }, "geometry": { "type": "Point", "coordinates": [ 8301528.539712056517601, 4758388.715488791465759 ] } },
{ "type": "Feature", "properties": { "label": "克" }, "geometry": { "type": "Point", "coordinates": [ 8306359.648120855912566, 4763588.686504172161222 ] } },
{ "type": "Feature", "properties": { "label": "其" }, "geometry": { "type": "Point", "coordinates": [ 8307396.857701585628092, 4762386.284460658207536 ] } },
{ "type": "Feature", "properties": { "label": "克" }, "geometry": { "type": "Point", "coordinates": [ 8309114.624887836165726, 4761169.940244073048234 ] } },
{ "type": "Feature", "properties": { "label": "托" }, "geometry": { "type": "Point", "coordinates": [ 8310551.130455256439745, 4759722.981139743700624 ] } },
{ "type": "Feature", "properties": { "label": "尔" }, "geometry": { "type": "Point", "coordinates": [ 8311544.825315378606319, 4758524.314007975161076 ] } },
{ "type": "Feature", "properties": { "label": "阔" }, "geometry": { "type": "Point", "coordinates": [ 8325628.035321857780218, 4797513.80965618789196 ] } },
{ "type": "Feature", "properties": { "label": "克" }, "geometry": { "type": "Point", "coordinates": [ 8328056.686458108015358, 4797637.546430988237262 ] } },
{ "type": "Feature", "properties": { "label": "阔" }, "geometry": { "type": "Point", "coordinates": [ 8330250.701938734389842, 4797281.373411070555449 ] } },
{ "type": "Feature", "properties": { "label": "勒" }, "geometry": { "type": "Point", "coordinates": [ 8332171.722102073952556, 4796726.13013376109302 ] } },
{ "type": "Feature", "properties": { "label": "塔" }, "geometry": { "type": "Point", "coordinates": [ 8332359.759767633862793, 4778884.886645287275314 ] } },
{ "type": "Feature", "properties": { "label": "尔" }, "geometry": { "type": "Point", "coordinates": [ 8331631.012440592050552, 4776674.219718875363469 ] } },
{ "type": "Feature", "properties": { "label": "嘎" }, "geometry": { "type": "Point", "coordinates": [ 8330329.964943903498352, 4774559.34395057708025 ] } },
{ "type": "Feature", "properties": { "label": "拉" }, "geometry": { "type": "Point", "coordinates": [ 8330549.144470713101327, 4772264.834007552824914 ] } },
{ "type": "Feature", "properties": { "label": "克" }, "geometry": { "type": "Point", "coordinates": [ 8330051.784177134744823, 4769833.603349529206753 ] } },
{ "type": "Feature", "properties": { "label": "玛" }, "geometry": { "type": "Point", "coordinates": [ 8335057.784423599019647, 4765339.283422296866775 ] } },
{ "type": "Feature", "properties": { "label": "依" }, "geometry": { "type": "Point", "coordinates": [ 8333575.154211725108325, 4764651.459186177700758 ] } },
{ "type": "Feature", "properties": { "label": "牙" }, "geometry": { "type": "Point", "coordinates": [ 8332058.758842808194458, 4763920.772564432583749 ] } },
{ "type": "Feature", "properties": { "label": "依" }, "geometry": { "type": "Point", "coordinates": [ 8332196.104972102679312, 4758568.313920083455741 ] } },
{ "type": "Feature", "properties": { "label": "萨" }, "geometry": { "type": "Point", "coordinates": [ 8333884.218590864911675, 4760236.27521419711411 ] } },
{ "type": "Feature", "properties": { "label": "且" }, "geometry": { "type": "Point", "coordinates": [ 8337376.203829704783857, 4764844.906187675893307 ] } },
{ "type": "Feature", "properties": { "label": "衣" }, "geometry": { "type": "Point", "coordinates": [ 8336322.662688278593123, 4763392.615406135097146 ] } },
{ "type": "Feature", "properties": { "label": "干" }, "geometry": { "type": "Point", "coordinates": [ 8335175.274388615973294, 4762112.802166752517223 ] } },
{ "type": "Feature", "properties": { "label": "阿" }, "geometry": { "type": "Point", "coordinates": [ 8307361.985363618470728, 4794099.335834983736277 ] } },
{ "type": "Feature", "properties": { "label": "尔" }, "geometry": { "type": "Point", "coordinates": [ 8309422.539885838516057, 4793775.397631251253188 ] } },
{ "type": "Feature", "properties": { "label": "恰" }, "geometry": { "type": "Point", "coordinates": [ 8311600.960596578195691, 4793619.192512399517 ] } },
{ "type": "Feature", "properties": { "label": "别" }, "geometry": { "type": "Point", "coordinates": [ 8313456.254004430025816, 4793429.786656469106674 ] } },
{ "type": "Feature", "properties": { "label": "勒" }, "geometry": { "type": "Point", "coordinates": [ 8315339.432225250639021, 4793334.456579373218119 ] } },
{ "type": "Feature", "properties": { "label": "勒" }, "geometry": { "type": "Point", "coordinates": [ 8326218.79942163079977, 4788828.841038457117975 ] } },
{ "type": "Feature", "properties": { "label": "多" }, "geometry": { "type": "Point", "coordinates": [ 8325008.883889513090253, 4789582.305425333790481 ] } },
{ "type": "Feature", "properties": { "label": "尔" }, "geometry": { "type": "Point", "coordinates": [ 8328585.482400356791914, 4787291.76070100069046 ] } },
{ "type": "Feature", "properties": { "label": "斯" }, "geometry": { "type": "Point", "coordinates": [ 8285676.973990120925009, 4800665.273002027533948 ] } },
{ "type": "Feature", "properties": { "label": "格" }, "geometry": { "type": "Point", "coordinates": [ 8286754.345686328597367, 4800945.503871343098581 ] } },
{ "type": "Feature", "properties": { "label": "当" }, "geometry": { "type": "Point", "coordinates": [ 8288538.83888544421643, 4800710.23882951028645 ] } },
{ "type": "Feature", "properties": { "label": "丁" }, "geometry": { "type": "Point", "coordinates": [ 8289768.286712699569762, 4800517.804827095940709 ] } },
{ "type": "Feature", "properties": { "label": "勒" }, "geometry": { "type": "Point", "coordinates": [ 8291043.0151441777125, 4800340.691635974682868 ] } },
{ "type": "Feature", "properties": { "label": "别" }, "geometry": { "type": "Point", "coordinates": [ 8292660.397308982908726, 4800546.470464347861707 ] } },
{ "type": "Feature", "properties": { "label": "恰" }, "geometry": { "type": "Point", "coordinates": [ 8294247.919137683697045, 4800690.819898244924843 ] } },
{ "type": "Feature", "properties": { "label": "尔" }, "geometry": { "type": "Point", "coordinates": [ 8295492.754453427158296, 4800482.484499334357679 ] } },
{ "type": "Feature", "properties": { "label": "阿" }, "geometry": { "type": "Point", "coordinates": [ 8296350.550891382619739, 4799283.081206066533923 ] } },
{ "type": "Feature", "properties": { "label": "苏" }, "geometry": { "type": "Point", "coordinates": [ 8295407.591920492239296, 4795057.989013011567295 ] } },
{ "type": "Feature", "properties": { "label": "克" }, "geometry": { "type": "Point", "coordinates": [ 8294188.06216861307621, 4794835.977334851399064 ] } },
{ "type": "Feature", "properties": { "label": "努" }, "geometry": { "type": "Point", "coordinates": [ 8292885.078514171764255, 4794456.333798457868397 ] } },
{ "type": "Feature", "properties": { "label": "吐" }, "geometry": { "type": "Point", "coordinates": [ 8291513.670498214662075, 4793648.118869375437498 ] } },
{ "type": "Feature", "properties": { "label": "古" }, "geometry": { "type": "Point", "coordinates": [ 8272296.984890903346241, 4786715.738893793895841 ] } },
{ "type": "Feature", "properties": { "label": "肉" }, "geometry": { "type": "Point", "coordinates": [ 8274424.937312511727214, 4785550.613609536550939 ] } },
{ "type": "Feature", "properties": { "label": "木" }, "geometry": { "type": "Point", "coordinates": [ 8276499.125209531746805, 4783102.959818010218441 ] } },
{ "type": "Feature", "properties": { "label": "土" }, "geometry": { "type": "Point", "coordinates": [ 8277254.702041135169566, 4780750.995588945224881 ] } },
{ "type": "Feature", "properties": { "label": "盖" }, "geometry": { "type": "Point", "coordinates": [ 8269525.845124935731292, 4777972.687554778531194 ] } },
{ "type": "Feature", "properties": { "label": "铁" }, "geometry": { "type": "Point", "coordinates": [ 8268182.966387908905745, 4778621.090035484172404 ] } },
{ "type": "Feature", "properties": { "label": "明" }, "geometry": { "type": "Point", "coordinates": [ 8266840.841835918836296, 4779178.048952501267195 ] } },
{ "type": "Feature", "properties": { "label": "托" }, "geometry": { "type": "Point", "coordinates": [ 8266309.436285403557122, 4780102.618062467314303 ] } },
{ "type": "Feature", "properties": { "label": "尔" }, "geometry": { "type": "Point", "coordinates": [ 8264948.392842259258032, 4780767.855810060165823 ] } },
{ "type": "Feature", "properties": { "label": "乌" }, "geometry": { "type": "Point", "coordinates": [ 8263928.784948084503412, 4781671.44624974578619 ] } },
{ "type": "Feature", "properties": { "label": "盖" }, "geometry": { "type": "Point", "coordinates": [ 8264207.63787535764277, 4772359.145386288873851 ] } },
{ "type": "Feature", "properties": { "label": "铁" }, "geometry": { "type": "Point", "coordinates": [ 8264130.846071384847164, 4773377.447214687243104 ] } },
{ "type": "Feature", "properties": { "label": "明" }, "geometry": { "type": "Point", "coordinates": [ 8263846.901688073761761, 4774870.087148678489029 ] } },
{ "type": "Feature", "properties": { "label": "特" }, "geometry": { "type": "Point", "coordinates": [ 8263398.548735584132373, 4775855.159125312231481 ] } },
{ "type": "Feature", "properties": { "label": "切" }, "geometry": { "type": "Point", "coordinates": [ 8263352.16039782576263, 4777303.009759964421391 ] } },
{ "type": "Feature", "properties": { "label": "托" }, "geometry": { "type": "Point", "coordinates": [ 8247561.728264205157757, 4784790.307220695540309 ] } },
{ "type": "Feature", "properties": { "label": "克" }, "geometry": { "type": "Point", "coordinates": [ 8249817.004227354191244, 4785046.148796519264579 ] } },
{ "type": "Feature", "properties": { "label": "沙" }, "geometry": { "type": "Point", "coordinates": [ 8250331.698220918886364, 4783501.930730516090989 ] } },
{ "type": "Feature", "properties": { "label": "洼" }, "geometry": { "type": "Point", "coordinates": [ 8250408.262607698328793, 4782212.457778295502067 ] } },
{ "type": "Feature", "properties": { "label": "玛" }, "geometry": { "type": "Point", "coordinates": [ 8252342.782515488564968, 4782546.501837099902332 ] } },
{ "type": "Feature", "properties": { "label": "尔" }, "geometry": { "type": "Point", "coordinates": [ 8256324.257187944836915, 4782928.463727059774101 ] } },
{ "type": "Feature", "properties": { "label": "苏" }, "geometry": { "type": "Point", "coordinates": [ 8262852.92900680936873, 4785762.247506733052433 ] } },
{ "type": "Feature", "properties": { "label": "坎" }, "geometry": { "type": "Point", "coordinates": [ 8259212.295640332624316, 4784816.787844592705369 ] } },
{ "type": "Feature", "properties": { "label": "河" }, "geometry": { "type": "Point", "coordinates": [ 8265721.319001800380647, 4788302.934315314516425 ] } },
{ "type": "Feature", "properties": { "label": "琼" }, "geometry": { "type": "Point", "coordinates": [ 8229395.942270529456437, 4780778.431894077919424 ] } },
{ "type": "Feature", "properties": { "label": "萨" }, "geometry": { "type": "Point", "coordinates": [ 8230105.655905434861779, 4779779.49653016589582 ] } },
{ "type": "Feature", "properties": { "label": "达" }, "geometry": { "type": "Point", "coordinates": [ 8230768.899186322465539, 4778977.132016783580184 ] } },
{ "type": "Feature", "properties": { "label": "特" }, "geometry": { "type": "Point", "coordinates": [ 8231526.179768613539636, 4777672.30794243235141 ] } },
{ "type": "Feature", "properties": { "label": "沟" }, "geometry": { "type": "Point", "coordinates": [ 8232211.312562203966081, 4776848.375615336000919 ] } },
{ "type": "Feature", "properties": { "label": "阔克布拉克" }, "geometry": { "type": "Point", "coordinates": [ 8228379.239472190849483, 4782575.597726689651608 ] } },
{ "type": "Feature", "properties": { "label": "琼" }, "geometry": { "type": "Point", "coordinates": [ 8208748.412366259843111, 4780155.406943378970027 ] } },
{ "type": "Feature", "properties": { "label": "喀" }, "geometry": { "type": "Point", "coordinates": [ 8209492.723299487493932, 4779383.994902307167649 ] } },
{ "type": "Feature", "properties": { "label": "讷" }, "geometry": { "type": "Point", "coordinates": [ 8209674.889628049917519, 4778197.362440449185669 ] } },
{ "type": "Feature", "properties": { "label": "什" }, "geometry": { "type": "Point", "coordinates": [ 8209840.500590490177274, 4776551.638207444921136 ] } },
{ "type": "Feature", "properties": { "label": "沟" }, "geometry": { "type": "Point", "coordinates": [ 8209448.402163739316165, 4775181.499369825236499 ] } },
{ "type": "Feature", "properties": { "label": "河" }, "geometry": { "type": "Point", "coordinates": [ 8208169.292877512052655, 4771350.759636727161705 ] } },
{ "type": "Feature", "properties": { "label": "苏" }, "geometry": { "type": "Point", "coordinates": [ 8205330.463190980255604, 4770709.7372653093189 ] } },
{ "type": "Feature", "properties": { "label": "尔" }, "geometry": { "type": "Point", "coordinates": [ 8198439.516198716126382, 4770428.144987803883851 ] } },
{ "type": "Feature", "properties": { "label": "坎" }, "geometry": { "type": "Point", "coordinates": [ 8201633.450509395450354, 4770082.563393606804311 ] } },
{ "type": "Feature", "properties": { "label": "玛" }, "geometry": { "type": "Point", "coordinates": [ 8194009.600640311837196, 4771006.021932943724096 ] } },
{ "type": "Feature", "properties": { "label": "沟" }, "geometry": { "type": "Point", "coordinates": [ 8213821.058120580390096, 4760929.130605305545032 ] } },
{ "type": "Feature", "properties": { "label": "勒" }, "geometry": { "type": "Point", "coordinates": [ 8211869.70653195399791, 4759401.670066440477967 ] } },
{ "type": "Feature", "properties": { "label": "别" }, "geometry": { "type": "Point", "coordinates": [ 8209760.058696057647467, 4757751.156176728196442 ] } },
{ "type": "Feature", "properties": { "label": "木" }, "geometry": { "type": "Point", "coordinates": [ 8207866.846763960085809, 4757437.822806702926755 ] } },
{ "type": "Feature", "properties": { "label": "库" }, "geometry": { "type": "Point", "coordinates": [ 8205518.407096990384161, 4757142.774549084715545 ] } },
{ "type": "Feature", "properties": { "label": "苏" }, "geometry": { "type": "Point", "coordinates": [ 8242586.008504659868777, 4806051.698059946298599 ] } },
{ "type": "Feature", "properties": { "label": "秋" }, "geometry": { "type": "Point", "coordinates": [ 8239803.116172643378377, 4805905.475094326771796 ] } },
{ "type": "Feature", "properties": { "label": "呼" }, "geometry": { "type": "Point", "coordinates": [ 8237756.329499603249133, 4805240.295841730199754 ] } },
{ "type": "Feature", "properties": { "label": "托" }, "geometry": { "type": "Point", "coordinates": [ 8235859.960165138356388, 4804426.348453624173999 ] } },
{ "type": "Feature", "properties": { "label": "河" }, "geometry": { "type": "Point", "coordinates": [ 8242421.564200188033283, 4828588.055730065330863 ] } },
{ "type": "Feature", "properties": { "label": "苏" }, "geometry": { "type": "Point", "coordinates": [ 8239229.122563865035772, 4826813.679862653836608 ] } },
{ "type": "Feature", "properties": { "label": "孜" }, "geometry": { "type": "Point", "coordinates": [ 8232309.530843927524984, 4824336.43702912889421 ] } },
{ "type": "Feature", "properties": { "label": "克" }, "geometry": { "type": "Point", "coordinates": [ 8228094.67608498595655, 4822834.934065980836749 ] } },
{ "type": "Feature", "properties": { "label": "勒" }, "geometry": { "type": "Point", "coordinates": [ 8236999.577006143517792, 4825960.607960902154446 ] } },
{ "type": "Feature", "properties": { "label": "阔" }, "geometry": { "type": "Point", "coordinates": [ 8224978.298946677707136, 4832368.384587389416993 ] } },
{ "type": "Feature", "properties": { "label": "什" }, "geometry": { "type": "Point", "coordinates": [ 8226533.059035643935204, 4831225.396772025153041 ] } },
{ "type": "Feature", "properties": { "label": "托" }, "geometry": { "type": "Point", "coordinates": [ 8229639.099974521435797, 4828949.580037844367325 ] } },
{ "type": "Feature", "properties": { "label": "克" }, "geometry": { "type": "Point", "coordinates": [ 8230220.654578475281596, 4827715.862880313768983 ] } },
{ "type": "Feature", "properties": { "label": "河" }, "geometry": { "type": "Point", "coordinates": [ 8231641.136180665344, 4827027.7678182721138 ] } },
{ "type": "Feature", "properties": { "label": "奥" }, "geometry": { "type": "Point", "coordinates": [ 8227953.229329799301922, 4830652.292388824746013 ] } },
{ "type": "Feature", "properties": { "label": "喀" }, "geometry": { "type": "Point", "coordinates": [ 8232941.756318354979157, 4847061.969767834991217 ] } },
{ "type": "Feature", "properties": { "label": "什" }, "geometry": { "type": "Point", "coordinates": [ 8234058.020903365686536, 4845704.64435303863138 ] } },
{ "type": "Feature", "properties": { "label": "喀" }, "geometry": { "type": "Point", "coordinates": [ 8234865.615427241660655, 4844081.5069559821859 ] } },
{ "type": "Feature", "properties": { "label": "苏" }, "geometry": { "type": "Point", "coordinates": [ 8235422.163902792148292, 4842835.084541387856007 ] } },
{ "type": "Feature", "properties": { "label": "河" }, "geometry": { "type": "Point", "coordinates": [ 8236769.696602036245167, 4842681.242466800846159 ] } },
{ "type": "Feature", "properties": { "label": "喀" }, "geometry": { "type": "Point", "coordinates": [ 8254365.981451914645731, 4862103.825087442062795 ] } },
{ "type": "Feature", "properties": { "label": "拉" }, "geometry": { "type": "Point", "coordinates": [ 8253853.745854957960546, 4861119.236305086873472 ] } },
{ "type": "Feature", "properties": { "label": "铁" }, "geometry": { "type": "Point", "coordinates": [ 8253467.912793590687215, 4860275.628829745575786 ] } },
{ "type": "Feature", "properties": { "label": "热" }, "geometry": { "type": "Point", "coordinates": [ 8253249.25017377641052, 4859318.177497023716569 ] } },
{ "type": "Feature", "properties": { "label": "克" }, "geometry": { "type": "Point", "coordinates": [ 8253143.771897453814745, 4858476.139029243960977 ] } },
{ "type": "Feature", "properties": { "label": "苏" }, "geometry": { "type": "Point", "coordinates": [ 8252785.886627561412752, 4857441.646454049274325 ] } },
{ "type": "Feature", "properties": { "label": "河" }, "geometry": { "type": "Point", "coordinates": [ 8252563.31922609359026, 4856828.604673268273473 ] } },
{ "type": "Feature", "properties": { "label": "萨" }, "geometry": { "type": "Point", "coordinates": [ 8271845.998900952748954, 4862303.380727299489081 ] } },
{ "type": "Feature", "properties": { "label": "瓦" }, "geometry": { "type": "Point", "coordinates": [ 8271648.673755097202957, 4861123.597390102222562 ] } },
{ "type": "Feature", "properties": { "label": "亚" }, "geometry": { "type": "Point", "coordinates": [ 8270996.10200847312808, 4859860.771011158823967 ] } },
{ "type": "Feature", "properties": { "label": "尔" }, "geometry": { "type": "Point", "coordinates": [ 8269837.237240540795028, 4859129.810732286423445 ] } },
{ "type": "Feature", "properties": { "label": "地" }, "geometry": { "type": "Point", "coordinates": [ 8269199.620029083453119, 4858207.841557648964226 ] } },
{ "type": "Feature", "properties": { "label": "河" }, "geometry": { "type": "Point", "coordinates": [ 8269228.824544827453792, 4857159.577872972004116 ] } },
{ "type": "Feature", "properties": { "label": "卓" }, "geometry": { "type": "Point", "coordinates": [ 8286351.965317987836897, 4855961.450441622175276 ] } },
{ "type": "Feature", "properties": { "label": "尤" }, "geometry": { "type": "Point", "coordinates": [ 8285290.885294468142092, 4852953.138664845377207 ] } },
{ "type": "Feature", "properties": { "label": "勒" }, "geometry": { "type": "Point", "coordinates": [ 8282008.659104553051293, 4850634.484553426504135 ] } },
{ "type": "Feature", "properties": { "label": "苏" }, "geometry": { "type": "Point", "coordinates": [ 8277961.085736952722073, 4845704.728884380310774 ] } },
{ "type": "Feature", "properties": { "label": "河" }, "geometry": { "type": "Point", "coordinates": [ 8276672.828722749836743, 4842430.223305785097182 ] } },
{ "type": "Feature", "properties": { "label": "克" }, "geometry": { "type": "Point", "coordinates": [ 8276161.696970627643168, 4839898.740772288292646 ] } },
{ "type": "Feature", "properties": { "label": "孜" }, "geometry": { "type": "Point", "coordinates": [ 8280028.769325817003846, 4839234.659635139629245 ] } },
{ "type": "Feature", "properties": { "label": "苏" }, "geometry": { "type": "Point", "coordinates": [ 8285706.945616734214127, 4835816.407573781907558 ] } },
{ "type": "Feature", "properties": { "label": "河" }, "geometry": { "type": "Point", "coordinates": [ 8288158.156822687014937, 4833016.342973362654448 ] } },
{ "type": "Feature", "properties": { "label": "河" }, "geometry": { "type": "Point", "coordinates": [ 8297805.827116805128753, 4815135.170648685656488 ] } },
{ "type": "Feature", "properties": { "label": "苏" }, "geometry": { "type": "Point", "coordinates": [ 8294872.740742382593453, 4814778.455971165560186 ] } },
{ "type": "Feature", "properties": { "label": "坎" }, "geometry": { "type": "Point", "coordinates": [ 8292340.266518163494766, 4815653.833100183866918 ] } },
{ "type": "Feature", "properties": { "label": "玛" }, "geometry": { "type": "Point", "coordinates": [ 8288450.133908630348742, 4813027.144188304431736 ] } },
{ "type": "Feature", "properties": { "label": "尔" }, "geometry": { "type": "Point", "coordinates": [ 8290505.857342119328678, 4814476.465616283938289 ] } },
{ "type": "Feature", "properties": { "label": "克" }, "geometry": { "type": "Point", "coordinates": [ 8276008.696971710771322, 4810922.083824157714844 ] } },
{ "type": "Feature", "properties": { "label": "牙" }, "geometry": { "type": "Point", "coordinates": [ 8277112.807798096910119, 4809657.837331355549395 ] } },
{ "type": "Feature", "properties": { "label": "孜" }, "geometry": { "type": "Point", "coordinates": [ 8277612.916357764974236, 4808206.062954099848866 ] } },
{ "type": "Feature", "properties": { "label": "交" }, "geometry": { "type": "Point", "coordinates": [ 8272195.651030528359115, 4806722.574690329842269 ] } },
{ "type": "Feature", "properties": { "label": "日" }, "geometry": { "type": "Point", "coordinates": [ 8271498.629935810342431, 4804992.381722361780703 ] } },
{ "type": "Feature", "properties": { "label": "勒" }, "geometry": { "type": "Point", "coordinates": [ 8274638.832118028774858, 4804108.563909260556102 ] } },
{ "type": "Feature", "properties": { "label": "阔" }, "geometry": { "type": "Point", "coordinates": [ 8271625.629278378561139, 4803176.379841674119234 ] } },
{ "type": "Feature", "properties": { "label": "铁" }, "geometry": { "type": "Point", "coordinates": [ 8269372.506510587409139, 4803935.675587442703545 ] } },
{ "type": "Feature", "properties": { "label": "盖" }, "geometry": { "type": "Point", "coordinates": [ 8267248.355663840658963, 4802548.621170458383858 ] } },
{ "type": "Feature", "properties": { "label": "克" }, "geometry": { "type": "Point", "coordinates": [ 8255693.213678958825767, 4801285.3905078349635 ] } },
{ "type": "Feature", "properties": { "label": "牙" }, "geometry": { "type": "Point", "coordinates": [ 8254718.573953343555331, 4798796.540010483935475 ] } },
{ "type": "Feature", "properties": { "label": "孜" }, "geometry": { "type": "Point", "coordinates": [ 8251215.129899309016764, 4796972.853863133117557 ] } },
{ "type": "Feature", "properties": { "label": "苏" }, "geometry": { "type": "Point", "coordinates": [ 8220703.592580141499639, 4748056.013141699135303 ] } },
{ "type": "Feature", "properties": { "label": "鲁" }, "geometry": { "type": "Point", "coordinates": [ 8219888.277538065798581, 4746196.819733715616167 ] } },
{ "type": "Feature", "properties": { "label": "果" }, "geometry": { "type": "Point", "coordinates": [ 8219151.564843713305891, 4744298.082361650653183 ] } },
{ "type": "Feature", "properties": { "label": "如" }, "geometry": { "type": "Point", "coordinates": [ 8217926.210788659751415, 4742391.993597076274455 ] } },
{ "type": "Feature", "properties": { "label": "木" }, "geometry": { "type": "Point", "coordinates": [ 8216860.462986858561635, 4740292.13439385406673 ] } },
{ "type": "Feature", "properties": { "label": "都" }, "geometry": { "type": "Point", "coordinates": [ 8216140.973359221592546, 4738630.304434087127447 ] } },
{ "type": "Feature", "properties": { "label": "沟" }, "geometry": { "type": "Point", "coordinates": [ 8215120.645438944920897, 4736601.409354803152382 ] } },
{ "type": "Feature", "properties": { "label": "拉" }, "geometry": { "type": "Point", "coordinates": [ 8234961.541031029075384, 4749170.883951211348176 ] } },
{ "type": "Feature", "properties": { "label": "阿" }, "geometry": { "type": "Point", "coordinates": [ 8233847.023639405146241, 4747682.334645715542138 ] } },
{ "type": "Feature", "properties": { "label": "尔" }, "geometry": { "type": "Point", "coordinates": [ 8234356.861457277089357, 4746062.04332141764462 ] } },
{ "type": "Feature", "properties": { "label": "特" }, "geometry": { "type": "Point", "coordinates": [ 8232888.562912760302424, 4744003.868398777209222 ] } },
{ "type": "Feature", "properties": { "label": "苏" }, "geometry": { "type": "Point", "coordinates": [ 8231852.376976322382689, 4742492.015272247605026 ] } },
{ "type": "Feature", "properties": { "label": "河" }, "geometry": { "type": "Point", "coordinates": [ 8231363.945412214845419, 4740420.42249792162329 ] } },
{ "type": "Feature", "properties": { "label": "开" }, "geometry": { "type": "Point", "coordinates": [ 8280368.442914892919362, 4730993.213487573899329 ] } },
{ "type": "Feature", "properties": { "label": "牙" }, "geometry": { "type": "Point", "coordinates": [ 8281123.420897723175585, 4729867.245707864873111 ] } },
{ "type": "Feature", "properties": { "label": "克" }, "geometry": { "type": "Point", "coordinates": [ 8282286.691518911160529, 4729056.779306386597455 ] } },
{ "type": "Feature", "properties": { "label": "巴" }, "geometry": { "type": "Point", "coordinates": [ 8283512.173180664889514, 4728221.412013730034232 ] } },
{ "type": "Feature", "properties": { "label": "什" }, "geometry": { "type": "Point", "coordinates": [ 8284897.767637642100453, 4727675.826529318466783 ] } },
{ "type": "Feature", "properties": { "label": "河" }, "geometry": { "type": "Point", "coordinates": [ 8286589.407211013138294, 4728200.797772041521966 ] } },
{ "type": "Feature", "properties": { "label": "阿" }, "geometry": { "type": "Point", "coordinates": [ 8281835.052558222785592, 4760208.422079170122743 ] } },
{ "type": "Feature", "properties": { "label": "依" }, "geometry": { "type": "Point", "coordinates": [ 8283317.333418956957757, 4760003.752497496083379 ] } },
{ "type": "Feature", "properties": { "label": "拉" }, "geometry": { "type": "Point", "coordinates": [ 8284844.008192629553378, 4759561.106473097577691 ] } },
{ "type": "Feature", "properties": { "label": "那" }, "geometry": { "type": "Point", "coordinates": [ 8285961.999913080595434, 4759244.535171729512513 ] } },
{ "type": "Feature", "properties": { "label": "玛" }, "geometry": { "type": "Point", "coordinates": [ 8287164.156079747714102, 4759166.23658905364573 ] } },
{ "type": "Feature", "properties": { "label": "冰" }, "geometry": { "type": "Point", "coordinates": [ 8288472.774110051803291, 4759323.349670149385929 ] } },
{ "type": "Feature", "properties": { "label": "川" }, "geometry": { "type": "Point", "coordinates": [ 8289885.503801052458584, 4760062.661409895867109 ] } },
{ "type": "Feature", "properties": { "label": "古" }, "geometry": { "type": "Point", "coordinates": [ 8291685.279063559137285, 4762675.263957343064249 ] } },
{ "type": "Feature", "properties": { "label": "鲁" }, "geometry": { "type": "Point", "coordinates": [ 8291352.086458303034306, 4761751.286082092672586 ] } },
{ "type": "Feature", "properties": { "label": "液" }, "geometry": { "type": "Point", "coordinates": [ 8291390.284878431819379, 4760699.7250054506585 ] } },
{ "type": "Feature", "properties": { "label": "涅" }, "geometry": { "type": "Point", "coordinates": [ 8291363.786307491362095, 4759696.548529751598835 ] } },
{ "type": "Feature", "properties": { "label": "克" }, "geometry": { "type": "Point", "coordinates": [ 8291707.147985713556409, 4758759.639382965862751 ] } },
{ "type": "Feature", "properties": { "label": "冰" }, "geometry": { "type": "Point", "coordinates": [ 8291567.554848909378052, 4757820.907171994447708 ] } },
{ "type": "Feature", "properties": { "label": "川" }, "geometry": { "type": "Point", "coordinates": [ 8291719.335706029087305, 4756624.640174144878983 ] } },
{ "type": "Feature", "properties": { "label": "河" }, "geometry": { "type": "Point", "coordinates": [ 8253780.680432321503758, 4834689.57564006652683 ] } },
{ "type": "Feature", "properties": { "label": "根" }, "geometry": { "type": "Point", "coordinates": [ 8250908.06351616512984, 4836439.849941990338266 ] } },
{ "type": "Feature", "properties": { "label": "吉" }, "geometry": { "type": "Point", "coordinates": [ 8248758.819517267867923, 4838194.865982076153159 ] } },
{ "type": "Feature", "properties": { "label": "萨" }, "geometry": { "type": "Point", "coordinates": [ 8251516.418432931415737, 4825599.865907027386129 ] } },
{ "type": "Feature", "properties": { "label": "喀" }, "geometry": { "type": "Point", "coordinates": [ 8248265.340312655083835, 4822507.432978880591691 ] } },
{ "type": "Feature", "properties": { "label": "勒" }, "geometry": { "type": "Point", "coordinates": [ 8246215.085204439237714, 4819486.228761373087764 ] } },
{ "type": "Feature", "properties": { "label": "卡" }, "geometry": { "type": "Point", "coordinates": [ 8243672.864523044787347, 4773963.926486642099917 ] } },
{ "type": "Feature", "properties": { "label": "特" }, "geometry": { "type": "Point", "coordinates": [ 8245625.512814309448004, 4768592.643250031396747 ] } },
{ "type": "Feature", "properties": { "label": "拉" }, "geometry": { "type": "Point", "coordinates": [ 8245303.080001382157207, 4771452.633448583073914 ] } },
{ "type": "Feature", "properties": { "label": "河" }, "geometry": { "type": "Point", "coordinates": [ 8245538.656940664164722, 4766015.128107705153525 ] } },
{ "type": "Feature", "properties": { "label": "铁" }, "geometry": { "type": "Point", "coordinates": [ 8338225.608145490288734, 4853733.635043389163911 ] } },
{ "type": "Feature", "properties": { "label": "热" }, "geometry": { "type": "Point", "coordinates": [ 8339685.440304668620229, 4852695.602000884711742 ] } },
{ "type": "Feature", "properties": { "label": "克" }, "geometry": { "type": "Point", "coordinates": [ 8340983.072759978473186, 4852014.256489479914308 ] } },
{ "type": "Feature", "properties": { "label": "河" }, "geometry": { "type": "Point", "coordinates": [ 8341945.589019412174821, 4850139.9874945031479 ] } },
{ "type": "Feature", "properties": { "label": "阿" }, "geometry": { "type": "Point", "coordinates": [ 8312240.157796958461404, 4852448.925132725387812 ] } },
{ "type": "Feature", "properties": { "label": "克" }, "geometry": { "type": "Point", "coordinates": [ 8312247.079565460793674, 4851057.931102189235389 ] } },
{ "type": "Feature", "properties": { "label": "然" }, "geometry": { "type": "Point", "coordinates": [ 8311565.294798494316638, 4849850.967358529567719 ] } },
{ "type": "Feature", "properties": { "label": "托" }, "geometry": { "type": "Point", "coordinates": [ 8264124.412472822703421, 4819682.856331085786223 ] } },
{ "type": "Feature", "properties": { "label": "呼" }, "geometry": { "type": "Point", "coordinates": [ 8267649.169537609443069, 4821669.852940098382533 ] } },
{ "type": "Feature", "properties": { "label": "秋" }, "geometry": { "type": "Point", "coordinates": [ 8270629.049518103711307, 4823380.2727717962116 ] } },
{ "type": "Feature", "properties": { "label": "苏" }, "geometry": { "type": "Point", "coordinates": [ 8274964.712305124849081, 4823699.808578777126968 ] } },
{ "type": "Feature", "properties": { "label": "勒" }, "geometry": { "type": "Point", "coordinates": [ 8283622.737833367660642, 4837874.168233941309154 ] } },
{ "type": "Feature", "properties": { "label": "孜" }, "geometry": { "type": "Point", "coordinates": [ 8315862.872584098950028, 4813207.723222859203815 ] } },
{ "type": "Feature", "properties": { "label": "勒" }, "geometry": { "type": "Point", "coordinates": [ 8318628.716661461628973, 4815443.853085204958916 ] } },
{ "type": "Feature", "properties": { "label": "苏" }, "geometry": { "type": "Point", "coordinates": [ 8321827.306232215836644, 4815309.721919980831444 ] } },
{ "type": "Feature", "properties": { "label": "河" }, "geometry": { "type": "Point", "coordinates": [ 8325756.064865320920944, 4815204.258955170400441 ] } },
{ "type": "Feature", "properties": { "label": "克" }, "geometry": { "type": "Point", "coordinates": [ 8312402.560035693459213, 4812753.767402860336006 ] } },
{ "type": "Feature", "properties": { "label": "泉" }, "geometry": { "type": "Point", "coordinates": [ 8321831.184179903008044, 4790357.618009550496936 ] } },
{ "type": "Feature", "properties": { "label": "卡" }, "geometry": { "type": "Point", "coordinates": [ 8236021.49578978959471, 4750999.527144066989422 ] } }
]
}
